{"type":"FeatureCollection","name":"Smith River Ranch candidate parcel detail","metadata":{"source":{"publisher":"Montana State Library / Montana Department of Revenue","service":"Montana Cadastral Framework, Montana Parcels layer","url":"https://gisservice.mt.gov/ArcGIS/rest/services/msdi_cadastral_map_v1/MapServer/1","coordinate_system":"WGS 84 longitude/latitude (EPSG:4326)","generated_on":"2026-09-01"},"publication_note":"Cadastral reference only; not a certified survey or title parcel schedule."},"features":[{"type":"Feature","geometry":{"type":"Polygon","coordinates":[[[-111.30625090886694,46.88141334058844],[-111.31153694269169,46.88141336290873],[-111.31682297565233,46.88141338732602],[-111.3221047068031,46.88141335551053],[-111.32732829167718,46.881413326453554],[-111.32732818202493,46.88128671196088],[-111.32732522614177,46.87777449316707],[-111.32732514104615,46.87767954445132],[-111.32732212629716,46.87413567936126],[-111.32732206886126,46.874072372095156],[-111.32731905780307,46.87049703975653],[-111.32731902762589,46.870465400986994],[-111.32731598948418,46.86685842991397],[-111.32205279250601,46.86686987922372],[-111.32204618165017,46.866869878477274],[-111.31677639649948,46.86688135447002],[-111.3115058359161,46.86689363763155],[-111.30623524785182,46.86690594624464],[-111.30623917289024,46.87053278018454],[-111.30624307580797,46.874159641550996],[-111.30624698246332,46.8777864795026],[-111.30625090886694,46.88141334058844]]]},"properties":{"parcel_id":"47222223101010000","owner":"GALT RANCH LP","legal_description":"S23, T13 N, R03 E, ALL","tax_record_acres":638.92,"gis_area_acres":640.69914392,"property_type":"Vacant Land","status":"Included in record-matched ranch candidate; seller/title verification pending"}},{"type":"Feature","geometry":{"type":"Polygon","coordinates":[[[-111.2587209748311,46.88118330961672],[-111.2639839539995,46.88116597492237],[-111.26398397111028,46.877552808561745],[-111.26398395831593,46.8739396093958],[-111.25871759528204,46.87395566928435],[-111.25345120392647,46.873971478635454],[-111.25344780490589,46.870356422996956],[-111.25344440902582,46.866741367387974],[-111.24817468972138,46.86675544776377],[-111.2429049994435,46.86676957618927],[-111.24291178799538,46.870385993737855],[-111.24291857440092,46.87400243661056],[-111.24292536586175,46.877618883976304],[-111.24293215339475,46.88123530174626],[-111.24819505933938,46.88121794940055],[-111.25345799808763,46.88120061961909],[-111.2587209748311,46.88118330961672]]]},"properties":{"parcel_id":"47222320101010000","owner":"KICKING BULL LLC","legal_description":"S20, T13 N, R04 E, N2, SE","tax_record_acres":480,"gis_area_acres":477.79064921,"property_type":"Vacant Land","status":"Included in record-matched ranch candidate; seller/title verification pending"}},{"type":"Feature","geometry":{"type":"Polygon","coordinates":[[[-111.26403629045011,46.924768559480384],[-111.26930908114511,46.92476312120426],[-111.27458187349986,46.92475768188502],[-111.27458045031423,46.923716301208486],[-111.2754963500153,46.92331278887093],[-111.27653162799426,46.92303304679086],[-111.2773092301649,46.92271963596581],[-111.27795861252824,46.92240821511079],[-111.2786433719324,46.9220585738175],[-111.2790342451685,46.92168839327936],[-111.27932915825102,46.921231819022985],[-111.27947515090938,46.920683148196154],[-111.27929267222466,46.92013155570757],[-111.27829957388133,46.9191827799577],[-111.2773304682315,46.91860324468697],[-111.2764219848645,46.9182956367375],[-111.27601061067111,46.918111754591244],[-111.27562584322968,46.91782460666252],[-111.27537393407529,46.91744113802829],[-111.27457188281548,46.91743752087167],[-111.2745669308362,46.91381191309195],[-111.27456197698912,46.91018630613953],[-111.26928159987678,46.91016477057418],[-111.2640012520814,46.9101432337546],[-111.26400823559834,46.91376631577689],[-111.26401524501024,46.91738939550368],[-111.26402564248359,46.92101014236484],[-111.26403629045011,46.924768559480384]]]},"properties":{"parcel_id":"47222306202010000","owner":"KICKING BULL LLC","legal_description":"S06, T13 N, R04 E, ACRES 364.162, LOTS 1& 2, S2NE4, SE4 ,EXCEPTING THEREFROM THAT PORTION LYING WEST OF THE SMITH RIVER","tax_record_acres":364.162,"gis_area_acres":364.1623339,"property_type":"Vacant Land","status":"Included in record-matched ranch candidate; seller/title verification pending"}},{"type":"Feature","geometry":{"type":"Polygon","coordinates":[[[-111.2429225422138,46.92480582488609],[-111.24820159730324,46.92479675236749],[-111.25348069997614,46.92478770091912],[-111.25875984623379,46.92477866789532],[-111.26403629045011,46.924768559480384],[-111.26402564248359,46.92101014236484],[-111.26401524501024,46.91738939550368],[-111.26400823559834,46.91376631577689],[-111.2640012520814,46.9101432337546],[-111.25874512195008,46.91015592026155],[-111.2534863684585,46.91016756168697],[-111.24822767773162,46.91017922304946],[-111.24296903409996,46.91019090819756],[-111.24295776445334,46.91380826919612],[-111.24294652398777,46.91742560261297],[-111.24293475373698,46.921043377909776],[-111.2429225422138,46.92480582488609]]]},"properties":{"parcel_id":"47222305101010000","owner":"KICKING BULL LLC","legal_description":"S05, T13 N, R04 E, ALL (FRL)","tax_record_acres":646.24,"gis_area_acres":643.84152306,"property_type":"Vacant Land","status":"Included in record-matched ranch candidate; seller/title verification pending"}},{"type":"Feature","geometry":{"type":"Polygon","coordinates":[[[-111.2323495625628,46.924826276429364],[-111.2376360372031,46.92481603808332],[-111.2429225422138,46.92480582488609],[-111.24293475373698,46.921043377909776],[-111.24294652398777,46.91742560261297],[-111.24295776445334,46.91380826919612],[-111.24296903409996,46.91019090819756],[-111.23769522086721,46.91019475845007],[-111.23242140779553,46.91019863723506],[-111.2324036407521,46.913815943526274],[-111.23238587218529,46.91743327490641],[-111.2323681061219,46.921050634000885],[-111.2323495625628,46.924826276429364]]]},"properties":{"parcel_id":"47222304201010000","owner":"KICKING BULL LLC","legal_description":"S04, T13 N, R04 E, W2 (FRL)","tax_record_acres":323.35,"gis_area_acres":322.70867659,"property_type":"Vacant Land","status":"Included in record-matched ranch candidate; seller/title verification pending"}},{"type":"Feature","geometry":{"type":"Polygon","coordinates":[[[-111.22706308505819,46.92483648821326],[-111.2323495625628,46.924826276429364],[-111.2323681061219,46.921050634000885],[-111.23238587218529,46.91743327490641],[-111.2324036407521,46.913815943526274],[-111.23242140779553,46.91019863723506],[-111.22714762188748,46.910202486525],[-111.22187381021459,46.910206335930475],[-111.22184996114787,46.9138231416801],[-111.221826143965,46.91743997470211],[-111.2218019341876,46.921057447273085],[-111.22177661562888,46.92484672818746],[-111.22706308505819,46.92483648821326]]]},"properties":{"parcel_id":"47222304401010000","owner":"KICKING BULL LLC","legal_description":"S04, T13 N, R04 E, E2 (FRCL)   AG IMPROVEMENT","tax_record_acres":323.65,"gis_area_acres":322.97516369,"property_type":"Improved Property","status":"Included in record-matched ranch candidate; seller/title verification pending"}},{"type":"Feature","geometry":{"type":"Polygon","coordinates":[[[-111.21649269682888,46.9248586336132],[-111.22177661562888,46.92484672818746],[-111.2218019341876,46.921057447273085],[-111.221826143965,46.91743997470211],[-111.22184996114787,46.9138231416801],[-111.22187381021459,46.910206335930475],[-111.21657624736997,46.910205770283895],[-111.21127871219119,46.91020520446443],[-111.20598114819032,46.91020463931884],[-111.20068361220714,46.91020404518768],[-111.20067221496076,46.913818294593106],[-111.20066078862902,46.91743254340681],[-111.20065125243785,46.92104868247013],[-111.20064099466315,46.92489432407797],[-111.20592488748332,46.924882445945045],[-111.2112088032166,46.924870539295945],[-111.21649269682888,46.9248586336132]]]},"properties":{"parcel_id":"47222303101010000","owner":"KICKING BULL LLC","legal_description":"S03, T13 N, R04 E, ALL (FRCL)","tax_record_acres":648.88,"gis_area_acres":648.67659701,"property_type":"Vacant Land","status":"Included in record-matched ranch candidate; seller/title verification pending"}},{"type":"Feature","geometry":{"type":"Polygon","coordinates":[[[-111.17949449027107,46.92493197627297],[-111.18478110189962,46.92492256960472],[-111.19006774308811,46.92491316559139],[-111.19535435584132,46.92490375788702],[-111.20064099466315,46.92489432407797],[-111.20065125243785,46.92104868247013],[-111.20066078862902,46.91743254340681],[-111.20067221496076,46.913818294593106],[-111.20068361220714,46.91020404518768],[-111.1953956591339,46.91023470033172],[-111.1901077091792,46.91026535916917],[-111.18481975818071,46.91029601545991],[-111.17953177865225,46.910326673208985],[-111.17952202848382,46.913942087852654],[-111.17951227358655,46.91755747543523],[-111.17950357705823,46.921174223860554],[-111.17949449027107,46.92493197627297]]]},"properties":{"parcel_id":"47222302101010000","owner":"KICKING BULL LLC","legal_description":"S02, T13 N, R04 E, ALL (FRCL)","tax_record_acres":648.2,"gis_area_acres":647.431198,"property_type":"Vacant Land","status":"Included in record-matched ranch candidate; seller/title verification pending"}},{"type":"Feature","geometry":{"type":"Polygon","coordinates":[[[-111.15834332143785,46.92498118448663],[-111.1636310993781,46.92496886332574],[-111.16891890687792,46.92495656631482],[-111.17420668944202,46.92494427264147],[-111.17949449027107,46.92493197627297],[-111.17950357705823,46.921174223860554],[-111.17951227358655,46.91755747543523],[-111.17952202848382,46.913942087852654],[-111.17953177865225,46.910326673208985],[-111.17424333160879,46.910357242513655],[-111.16895488112068,46.910387818263835],[-111.1636664557718,46.91041839104008],[-111.1583780044103,46.91044896428915],[-111.15836642554281,46.91408676908425],[-111.15835484253475,46.91772457378931],[-111.15834906920004,46.92135287895168],[-111.15834332143785,46.92498118448663]]]},"properties":{"parcel_id":"47222301101010000","owner":"KICKING BULL LLC","legal_description":"S01, T13 N, R04 E, ALL (FRCL)","tax_record_acres":643.12,"gis_area_acres":644.12151215,"property_type":"Vacant Land","status":"Included in record-matched ranch candidate; seller/title verification pending"}},{"type":"Feature","geometry":{"type":"Polygon","coordinates":[[[-111.28504921693717,46.94280982609723],[-111.28508339219928,46.94641618313515],[-111.28510848833555,46.94901253386458],[-111.29038515663129,46.948695590165066],[-111.29072375661931,46.94867524536575],[-111.29527367026252,46.946823882746],[-111.29564707616152,46.9465083960746],[-111.29572644053597,46.94644133733403],[-111.29665520745415,46.94565663175501],[-111.29633751901629,46.94282888155627],[-111.29626804108717,46.942210424928696],[-111.29560759132092,46.941823431856726],[-111.2938809789279,46.94081166758739],[-111.29031238540584,46.940553713942634],[-111.2896832738132,46.940508254067076],[-111.28741980011854,46.93920530404787],[-111.28501509715207,46.93920349505781],[-111.28504921693717,46.94280982609723]]]},"properties":{"parcel_id":"47234725401010000","owner":"KICKING BULL LLC","legal_description":"S25, T14 N, R03 E, ACRES 208.151, ALL THAT PORTION OF THE E 2 LYING EAST OF THE LOW WATER MARK OF THE SMITH RIVER    AG IMPROVEMENTS","tax_record_acres":208.151,"gis_area_acres":184.37984415,"property_type":"Improved Property","status":"Included in record-matched ranch candidate; seller/title verification pending"}},{"type":"Feature","geometry":{"type":"Polygon","coordinates":[[[-111.15328742908984,46.895928615648174],[-111.15839729710123,46.8959215209197],[-111.15840365720625,46.89229232514807],[-111.15841001659072,46.888663132044684],[-111.1584164000811,46.885033937662485],[-111.15842276003029,46.88140477241692],[-111.15329099567778,46.881421786054766],[-111.1480141451297,46.88143921946992],[-111.14273723941812,46.881453901700745],[-111.13746033262514,46.88146861382955],[-111.13745434017365,46.88509130799587],[-111.13744837581855,46.88871400085221],[-111.13744238448712,46.89233669497416],[-111.13743639371496,46.89595938905242],[-111.14272112761759,46.895947734226176],[-111.14800583327414,46.89593610273865],[-111.1480098223406,46.895936029892525],[-111.15328742908984,46.895928615648174]]]},"properties":{"parcel_id":"47222418101010000","owner":"KICKING BULL LLC","legal_description":"S18, T13 N, R05 E, ALL (FRCL)","tax_record_acres":635.2,"gis_area_acres":635.58280436,"property_type":"Vacant Land","status":"Included in record-matched ranch candidate; seller/title verification pending"}},{"type":"Feature","geometry":{"type":"Polygon","coordinates":[[[-111.2429769339412,46.95013153525892],[-111.24825465202785,46.950121295248906],[-111.25353244344782,46.95011082496682],[-111.25353027081718,46.9464984108845],[-111.25878538815968,46.946491127532155],[-111.26404050289692,46.946483567629585],[-111.2640637189786,46.94286278960021],[-111.26408696626285,46.93924201441515],[-111.25880645927231,46.939250046408304],[-111.25352595341208,46.93925807761208],[-111.24824549055336,46.9392661028847],[-111.24296507636986,46.93927417616308],[-111.24296903016992,46.94289328615645],[-111.24297298196339,46.94651239686805],[-111.2429769339412,46.95013153525892]]]},"properties":{"parcel_id":"47234829301010000","owner":"KICKING BULL LLC","legal_description":"S29, T14 N, R04 E, S2, S2NE","tax_record_acres":400,"gis_area_acres":398.7786196,"property_type":"Vacant Land","status":"Included in record-matched ranch candidate; seller/title verification pending"}},{"type":"Feature","geometry":{"type":"Polygon","coordinates":[[[-111.22180465899021,46.94292210482077],[-111.22181700472318,46.946537991944275],[-111.22710599775947,46.946531974721566],[-111.23239499078265,46.94652570930032],[-111.23240314148683,46.95014295681392],[-111.23769002414389,46.95013735808221],[-111.2429769339412,46.95013153525892],[-111.24297298196339,46.94651239686805],[-111.24296903016992,46.94289328615645],[-111.24296507636986,46.93927417616308],[-111.23767188235523,46.93928219441805],[-111.23237869112978,46.93929018367585],[-111.2270854992482,46.939298200707086],[-111.22179231238057,46.93930621841732],[-111.22180465899021,46.94292210482077]]]},"properties":{"parcel_id":"47234828301010000","owner":"KICKING BULL LLC","legal_description":"S28, T14 N, R04 E, S2, S2NW","tax_record_acres":400,"gis_area_acres":399.81939103,"property_type":"Vacant Land","status":"Included in record-matched ranch candidate; seller/title verification pending"}},{"type":"Feature","geometry":{"type":"Polygon","coordinates":[[[-111.20064005706949,46.93573712325468],[-111.20063971544597,46.939351369017004],[-111.20592787685935,46.93934007599343],[-111.21121601173172,46.93932880708354],[-111.21121421859378,46.93571447456294],[-111.21121239685492,46.93210014228712],[-111.20592639961346,46.9321116337701],[-111.20064037006202,46.93212284442013],[-111.20064005706949,46.93573712325468]]]},"properties":{"parcel_id":"47234834101010000","owner":"KICKING BULL LLC","legal_description":"S34, T14 N, R04 E","tax_record_acres":160,"gis_area_acres":159.69462989,"property_type":"Vacant Land","status":"Included in record-matched ranch candidate; seller/title verification pending"}},{"type":"Feature","geometry":{"type":"Polygon","coordinates":[[[-111.32201281335142,46.91032723428105],[-111.3275164172545,46.91032108666735],[-111.32748976520467,46.906722645437476],[-111.32748943166209,46.906677895793145],[-111.3274630875732,46.90312423342226],[-111.32746261820631,46.90303467420593],[-111.32743671561522,46.89952581922811],[-111.32743563162698,46.89937703758994],[-111.32741014888083,46.89592740367089],[-111.3220655266497,46.89592388123292],[-111.31678432449364,46.89592044086936],[-111.31150053908027,46.8959134734106],[-111.30621677933351,46.89590647551367],[-111.30620656908917,46.8995146695706],[-111.30619638341678,46.90312289108889],[-111.30618616745917,46.90673111031067],[-111.30617595459309,46.91033930418622],[-111.31145474239305,46.9103361884642],[-111.31673352727611,46.91033307206232],[-111.32201281335142,46.91032723428105]]]},"properties":{"parcel_id":"47222211101010000","owner":"GALT RANCH LP","legal_description":"S11, T13 N, R03 E, ALL (FRL)","tax_record_acres":644.36,"gis_area_acres":640.78361842,"property_type":"Vacant Land","status":"Included in record-matched ranch candidate; seller/title verification pending"}},{"type":"Feature","geometry":{"type":"Polygon","coordinates":[[[-111.27454540990233,46.873951827188165],[-111.27982629977356,46.873957575435576],[-111.28504382806463,46.87396301659742],[-111.28505295698858,46.87055096565047],[-111.28505351429305,46.87034654499011],[-111.28506264500206,46.8669326872298],[-111.2850628947402,46.866730073709896],[-111.27983078090341,46.866722046549015],[-111.27455108628361,46.86671402131055],[-111.27454780799853,46.86671404615021],[-111.26926752714051,46.86671363469473],[-111.26398722594547,46.86671323600361],[-111.26398394202333,46.866713248923],[-111.26398398854104,46.870016634823735],[-111.26541326252371,46.86973831778025],[-111.26761319617123,46.869511345637605],[-111.26881331472643,46.86951130736047],[-111.27094644306985,46.86969539716713],[-111.2713456032249,46.87024316742131],[-111.27131277554258,46.8705414095291],[-111.26879098171302,46.87396683788611],[-111.26926468606976,46.87394585833238],[-111.27454540990233,46.873951827188165]]]},"properties":{"parcel_id":"47222319401010000","owner":"GALT RANCH LP","legal_description":"S19, T13 N, R04 E, SW,PORTION OF SE","tax_record_acres":259,"gis_area_acres":262.15355835,"property_type":"Vacant Land","status":"Included in record-matched ranch candidate; seller/title verification pending"}},{"type":"Feature","geometry":{"type":"Polygon","coordinates":[[[-111.25344780490589,46.870356422996956],[-111.25345120392647,46.873971478635454],[-111.25871759528204,46.87395566928435],[-111.26398395831593,46.8739396093958],[-111.26398394707189,46.87032641566623],[-111.26398398854104,46.870016634823735],[-111.26398394202333,46.866713248923],[-111.25871418802905,46.86672730847684],[-111.25344440902582,46.866741367387974],[-111.25344780490589,46.870356422996956]]]},"properties":{"parcel_id":"47222320301010000","owner":"KICKING BULL LLC","legal_description":"S20, T13 N, R04 E","tax_record_acres":160,"gis_area_acres":159.3083505,"property_type":"Vacant Land","status":"Included in record-matched ranch candidate; seller/title verification pending"}},{"type":"Feature","geometry":{"type":"Polygon","coordinates":[[[-111.23765480295502,46.88125284650068],[-111.24293215339475,46.88123530174626],[-111.24292536586175,46.877618883976304],[-111.24291857440092,46.87400243661056],[-111.24291178799538,46.870385993737855],[-111.2429049994435,46.86676957618927],[-111.23762186612996,46.86679328842202],[-111.2323387579338,46.866817027690914],[-111.22705565179523,46.86684077184048],[-111.22177254737133,46.86686451097288],[-111.22178512206625,46.87047476099776],[-111.22179768929492,46.87408501033393],[-111.22181026226545,46.877695261468936],[-111.2218228054002,46.881305510423374],[-111.22710015308385,46.88128796532824],[-111.23237747623212,46.88127041893146],[-111.23765480295502,46.88125284650068]]]},"properties":{"parcel_id":"47222321101010000","owner":"KICKING BULL LLC","legal_description":"S21, T13 N, R04 E, ALL","tax_record_acres":640,"gis_area_acres":638.52240427,"property_type":"Vacant Land","status":"Included in record-matched ranch candidate; seller/title verification pending"}},{"type":"Feature","geometry":{"type":"Polygon","coordinates":[[[-111.21124176810554,46.88129396248339],[-111.21653228707568,46.88129972255534],[-111.2218228054002,46.881305510423374],[-111.22181026226545,46.877695261468936],[-111.22179768929492,46.87408501033393],[-111.22178512206625,46.87047476099776],[-111.22177254737133,46.86686451097288],[-111.21649185978573,46.86685558470244],[-111.21121120008821,46.866846656944055],[-111.21121885163868,46.87045874122735],[-111.21122648191054,46.874070824117005],[-111.21123413979728,46.87768237999429],[-111.21124176810554,46.88129396248339]]]},"properties":{"parcel_id":"47222322201010000","owner":"KICKING BULL LLC","legal_description":"S22, T13 N, R04 E, W2","tax_record_acres":320,"gis_area_acres":319.37740205,"property_type":"Vacant Land","status":"Included in record-matched ranch candidate; seller/title verification pending"}},{"type":"Feature","geometry":{"type":"Polygon","coordinates":[[[-111.30623524785182,46.86690594624464],[-111.3115058359161,46.86689363763155],[-111.31677639649948,46.86688135447002],[-111.32204618165017,46.866869878477274],[-111.32205279250601,46.86686987922372],[-111.32731598948418,46.86685842991397],[-111.32730736568722,46.86324487331313],[-111.32729877114532,46.85963129205352],[-111.32729017611545,46.85601773794404],[-111.32728155079275,46.852404183565895],[-111.32201943915705,46.85240507578549],[-111.31675732637413,46.85240596768089],[-111.31149520985767,46.852406861093314],[-111.30623309476968,46.852407754139485],[-111.30623363174796,46.85603230854826],[-111.3062341719174,46.85965683691697],[-111.30623470916198,46.863281391546764],[-111.30623524785182,46.86690594624464]]]},"properties":{"parcel_id":"47222226101010000","owner":"GALT RANCH LP","legal_description":"S26, T13 N, R03 E, ALL","tax_record_acres":640,"gis_area_acres":637.97267332,"property_type":"Vacant Land","status":"Included in record-matched ranch candidate; seller/title verification pending"}},{"type":"Feature","geometry":{"type":"Polygon","coordinates":[[[-111.28506264500206,46.8669326872298],[-111.29035578783912,46.8669260160837],[-111.29564895895183,46.86691931791958],[-111.30094210368983,46.86691264581423],[-111.30623524785182,46.86690594624464],[-111.30623470916198,46.863281391546764],[-111.3062341719174,46.85965683691697],[-111.30623363174796,46.85603230854826],[-111.30623309476968,46.852407754139485],[-111.30093228448825,46.85241117501208],[-111.2956314738967,46.85241459555872],[-111.29035513826638,46.85241584928299],[-111.2903326905647,46.852415850225164],[-111.28503393875167,46.85241710336181],[-111.28504091997982,46.85592485180509],[-111.28504117080193,46.85604607638415],[-111.28504809643388,46.85952668495683],[-111.28504870665955,46.859675076296774],[-111.2850556630625,46.863128378902296],[-111.28505602317138,46.86330388168471],[-111.2850628947402,46.866730073709896],[-111.28506264500206,46.8669326872298]]]},"properties":{"parcel_id":"47222225101010000","owner":"GALT RANCH LP","legal_description":"S25, T13 N, R03 E, ALL","tax_record_acres":640,"gis_area_acres":642.96655219,"property_type":"Vacant Land","status":"Included in record-matched ranch candidate; seller/title verification pending"}},{"type":"Feature","geometry":{"type":"Polygon","coordinates":[[[-111.27455108628361,46.86671402131055],[-111.27983078090341,46.866722046549015],[-111.2850628947402,46.866730073709896],[-111.28505602317138,46.86330388168471],[-111.2850556630625,46.863128378902296],[-111.28504870665955,46.859675076296774],[-111.28504809643388,46.85952668495683],[-111.28504117080193,46.85604607638415],[-111.28504091997982,46.85592485180509],[-111.28503393875167,46.85241710336181],[-111.2850335231717,46.852322991643014],[-111.2797712967957,46.85232246707767],[-111.27449588322037,46.85232191037339],[-111.27450966846692,46.855922216800806],[-111.27452348537284,46.85952254991409],[-111.27453729883038,46.863118270932965],[-111.27455108628361,46.86671402131055]]]},"properties":{"parcel_id":"47222330202010000","owner":"GALT RANCH LP","legal_description":"S30, T13 N, R04 E, W2 (FRL)","tax_record_acres":320,"gis_area_acres":317.08053382,"property_type":"Vacant Land","status":"Included in record-matched ranch candidate; seller/title verification pending"}},{"type":"Feature","geometry":{"type":"Polygon","coordinates":[[[-111.30623309476968,46.852407754139485],[-111.31149520985767,46.852406861093314],[-111.31675732637413,46.85240596768089],[-111.32201943915705,46.85240507578549],[-111.32728155079275,46.852404183565895],[-111.32729487100141,46.848775517146315],[-111.32730816720812,46.845146852124735],[-111.32732149040876,46.84151818319753],[-111.32733478278298,46.83788954641772],[-111.3255871978068,46.83789058445035],[-111.32205398274513,46.83789271590721],[-111.32031592646022,46.83789378308866],[-111.31677317360162,46.83789488493796],[-111.31504503506257,46.83789592464295],[-111.31149116850152,46.837898084579784],[-111.30977414284547,46.837899095859775],[-111.30620913910442,46.83790255991234],[-111.30621512172912,46.841528865955084],[-111.30622110297263,46.845155144296875],[-111.30622708333809,46.84878144893465],[-111.30623309476968,46.852407754139485]]]},"properties":{"parcel_id":"47222235101010000","owner":"GALT RANCH LP","legal_description":"S35, T13 N, R03 E, ALL","tax_record_acres":640,"gis_area_acres":640.35718384,"property_type":"Vacant Land","status":"Included in record-matched ranch candidate; seller/title verification pending"}},{"type":"Feature","geometry":{"type":"MultiPolygon","coordinates":[[[[-111.27465032687836,46.9464497752268],[-111.27992883452994,46.946432770954026],[-111.27994320060064,46.94924013872046],[-111.27994542666961,46.94967523135749],[-111.28151363986414,46.94961661265411],[-111.28510848833555,46.94901253386458],[-111.28508339219928,46.94641618313515],[-111.28504921693717,46.94280982609723],[-111.28501509715207,46.93920349505781],[-111.27989156999799,46.93920933240127],[-111.27991018713902,46.942821050650664],[-111.27464354104501,46.942832527708866],[-111.27465032687836,46.9464497752268]]],[[[-111.2799592076164,46.95237476407746],[-111.27996576650723,46.95364837588748],[-111.28151681424681,46.95364256331202],[-111.28276534774682,46.95363789483206],[-111.28026138923757,46.95195624816849],[-111.27995618015738,46.951781057051676],[-111.2799592076164,46.95237476407746]]]]},"properties":{"parcel_id":"47234830301010000","owner":"KICKING BULL LLC","legal_description":"S30, T14 N, R04 E, W2W2, NE4SW4  EXCEPTING THEREFROM ALL THAT PORTION OF THE W2W2 LYING WEST OF THE LOW WATER MARK OF THE SMITH RIVER","tax_record_acres":155.9,"gis_area_acres":155.08063082,"property_type":"Vacant Land","status":"Included in record-matched ranch candidate; seller/title verification pending"}},{"type":"Feature","geometry":{"type":"Polygon","coordinates":[[[-111.28503393875167,46.85241710336181],[-111.2903326905647,46.852415850225164],[-111.29035513826638,46.85241584928299],[-111.2956314738967,46.85241459555872],[-111.30093228448825,46.85241117501208],[-111.30623309476968,46.852407754139485],[-111.30622708333809,46.84878144893465],[-111.30622110297263,46.845155144296875],[-111.30621512172912,46.841528865955084],[-111.30620913910442,46.83790255991234],[-111.3045346429315,46.83790415352074],[-111.30092008071466,46.8379076201789],[-111.29929511372966,46.837909182690964],[-111.29929106488386,46.83790922131831],[-111.29563101901446,46.83791106961063],[-111.29405516563698,46.837912574315595],[-111.29034298880678,46.83791607371033],[-111.2888152517478,46.83791752097722],[-111.28505493384817,46.83791829969713],[-111.28502668787038,46.84152132523584],[-111.28502649624046,46.841543047504814],[-111.28499841953888,46.84512438276464],[-111.28499869665276,46.845167799848454],[-111.28501601218005,46.84872368826368],[-111.28501634626133,46.84879243936351],[-111.2850335231717,46.852322991643014],[-111.28503393875167,46.85241710336181]]]},"properties":{"parcel_id":"47222236101010000","owner":"GALT RANCH LP","legal_description":"S36, T13 N, R03 E, ALL (FRL)","tax_record_acres":641.37,"gis_area_acres":643.39978857,"property_type":"Vacant Land","status":"Included in record-matched ranch candidate; seller/title verification pending"}},{"type":"Feature","geometry":{"type":"Polygon","coordinates":[[[-111.27449588322037,46.85232191037339],[-111.2797712967957,46.85232246707767],[-111.2850335231717,46.852322991643014],[-111.28501634626133,46.84879243936351],[-111.28501601218005,46.84872368826368],[-111.28499869665276,46.845167799848454],[-111.28499841953888,46.84512438276464],[-111.28502649624046,46.841543047504814],[-111.28502668787038,46.84152132523584],[-111.28505493384817,46.83791829969713],[-111.28323445841013,46.83791806023827],[-111.27977423697708,46.837916661899705],[-111.27795164964694,46.83791595157305],[-111.27449351789419,46.83791505023782],[-111.27449410944376,46.8415178010233],[-111.27449469979095,46.84512055112423],[-111.27449528967891,46.848721217187155],[-111.27449588322037,46.85232191037339]]]},"properties":{"parcel_id":"47222331201010000","owner":"GALT RANCH LP","legal_description":"S31, T13 N, R04 E, W2","tax_record_acres":320,"gis_area_acres":317.35739682,"property_type":"Vacant Land","status":"Included in record-matched ranch candidate; seller/title verification pending"}},{"type":"Feature","geometry":{"type":"Polygon","coordinates":[[[-111.26405099903522,46.92838771348543],[-111.26406297965582,46.93200582098556],[-111.26407495806961,46.93562393016762],[-111.26408696626285,46.93924201441515],[-111.26936183286827,46.93922864641644],[-111.27463670396597,46.939215251071786],[-111.27989156999799,46.93920933240127],[-111.28501509715207,46.93920349505781],[-111.28500228520782,46.93671571742741],[-111.28381982073148,46.93556642058891],[-111.28264489322665,46.93465373722181],[-111.28067703175898,46.93355739514841],[-111.27936733567446,46.93289178204232],[-111.27796886163367,46.931704865731184],[-111.27769156430386,46.93125184016559],[-111.27776311044121,46.92981338236252],[-111.27825056874886,46.929413795292106],[-111.27833236180592,46.92900418760009],[-111.2787212501404,46.927789458941156],[-111.27902617478311,46.92691903829209],[-111.27902997333908,46.926314639777516],[-111.27873211349501,46.925959938590495],[-111.2769482148072,46.925367011636894],[-111.27524190726852,46.92475664151701],[-111.27458187349986,46.92475768188502],[-111.26930908114511,46.92476312120426],[-111.26403629045011,46.924768559480384],[-111.26405099903522,46.92838771348543]]]},"properties":{"parcel_id":"47234831101010000","owner":"KICKING BULL LLC","legal_description":"S31, T14 N, R04 E, E2","tax_record_acres":498.62,"gis_area_acres":497.42606596,"property_type":"Vacant Land","status":"Included in record-matched ranch candidate; seller/title verification pending"}},{"type":"Feature","geometry":{"type":"Polygon","coordinates":[[[-111.24296507636986,46.93927417616308],[-111.24824549055336,46.9392661028847],[-111.25352595341208,46.93925807761208],[-111.25880645927231,46.939250046408304],[-111.26408696626285,46.93924201441515],[-111.26407495806961,46.93562393016762],[-111.26406297965582,46.93200582098556],[-111.26405099903522,46.92838771348543],[-111.26403629045011,46.924768559480384],[-111.25875984623379,46.92477866789532],[-111.25348069997614,46.92478770091912],[-111.24820159730324,46.92479675236749],[-111.2429225422138,46.92480582488609],[-111.24293316365522,46.92842290276096],[-111.24294380906512,46.932039984631764],[-111.24295445684614,46.93565709332075],[-111.24296507636986,46.93927417616308]]]},"properties":{"parcel_id":"47234832101010000","owner":"KICKING BULL LLC","legal_description":"S32, T14 N, R04 E, ALL","tax_record_acres":640,"gis_area_acres":638.52856365,"property_type":"Vacant Land","status":"Included in record-matched ranch candidate; seller/title verification pending"}},{"type":"Feature","geometry":{"type":"Polygon","coordinates":[[[-111.22179231238057,46.93930621841732],[-111.2270854992482,46.939298200707086],[-111.23237869112978,46.93929018367585],[-111.23767188235523,46.93928219441805],[-111.24296507636986,46.93927417616308],[-111.24295445684614,46.93565709332075],[-111.24294380906512,46.932039984631764],[-111.24293316365522,46.92842290276096],[-111.2429225422138,46.92480582488609],[-111.2376360372031,46.92481603808332],[-111.2323495625628,46.924826276429364],[-111.22706308505819,46.92483648821326],[-111.22177661562888,46.92484672818746],[-111.22178052028357,46.92846158282396],[-111.22178445023644,46.93207647023918],[-111.22178838119501,46.935691329564975],[-111.22179231238057,46.93930621841732]]]},"properties":{"parcel_id":"47234833101010000","owner":"KICKING BULL LLC","legal_description":"S33, T14 N, R04 E, ALL","tax_record_acres":640,"gis_area_acres":639.46151081,"property_type":"Vacant Land","status":"Included in record-matched ranch candidate; seller/title verification pending"}},{"type":"Feature","geometry":{"type":"Polygon","coordinates":[[[-111.21121601173172,46.93932880708354],[-111.2165041487571,46.93931751324499],[-111.22179231238057,46.93930621841732],[-111.22178838119501,46.935691329564975],[-111.22178445023644,46.93207647023918],[-111.22178052028357,46.92846158282396],[-111.22177661562888,46.92484672818746],[-111.21649269682888,46.9248586336132],[-111.2112088032166,46.924870539295945],[-111.20592488748332,46.924882445945045],[-111.20064099466315,46.92489432407797],[-111.20064068409651,46.92850859780702],[-111.20064037006202,46.93212284442013],[-111.20592639961346,46.9321116337701],[-111.21121239685492,46.93210014228712],[-111.21121421859378,46.93571447456294],[-111.21121601173172,46.93932880708354]]]},"properties":{"parcel_id":"47234834201010000","owner":"KICKING BULL LLC","legal_description":"S34, T14 N, R04 E, NW, S2","tax_record_acres":480,"gis_area_acres":479.05326733,"property_type":"Vacant Land","status":"Included in record-matched ranch candidate; seller/title verification pending"}},{"type":"Feature","geometry":{"type":"Polygon","coordinates":[[[-111.26399940903427,46.899246832534764],[-111.26400088951615,46.902879305301404],[-111.2640023711745,46.90651180588665],[-111.2640012520814,46.9101432337546],[-111.26928159987678,46.91016477057418],[-111.27456197698912,46.91018630613953],[-111.27984453370026,46.910208542508784],[-111.28202642510631,46.910217320604275],[-111.28212006913941,46.90999531248642],[-111.28201999438876,46.90935540293172],[-111.28188718630979,46.90912627543641],[-111.281487255912,46.908852244728635],[-111.2798455680442,46.90822456517269],[-111.27945303702462,46.90807420385416],[-111.27918586140495,46.90805135658436],[-111.27705194638048,46.90731930132056],[-111.27551790866099,46.90697627379873],[-111.27456325414543,46.90689657276377],[-111.27441756318122,46.906884519417034],[-111.273516757462,46.90660959627114],[-111.27317827532814,46.906527609457264],[-111.27295063219482,46.90647235256922],[-111.27211652370934,46.90587758594469],[-111.2718503743406,46.90551141701057],[-111.27128471839335,46.90409437271829],[-111.27128537110092,46.90304352427172],[-111.27137582402142,46.90287475583564],[-111.27165272693803,46.9023575576679],[-111.27328775095394,46.90062133827326],[-111.27398873140818,46.89963839306458],[-111.27408469104186,46.89925121102592],[-111.27428980651999,46.898427214713024],[-111.27412454836036,46.8972383136859],[-111.27385785449553,46.896346107598525],[-111.2738584742711,46.89584417772139],[-111.2738082795095,46.89562889019725],[-111.26927846334326,46.89562219246437],[-111.26399792621599,46.89561436064636],[-111.26399940903427,46.899246832534764]]]},"properties":{"parcel_id":"47222307101010000","owner":"KICKING BULL LLC","legal_description":"S07, T13 N, R04 E, PART E OF RIVER","tax_record_acres":319.312,"gis_area_acres":319.29189223,"property_type":"Vacant Land","status":"Included in record-matched ranch candidate; seller/title verification pending"}},{"type":"Feature","geometry":{"type":"Polygon","coordinates":[[[-111.24822767773162,46.91017922304946],[-111.2534863684585,46.91016756168697],[-111.25874512195008,46.91015592026155],[-111.2640012520814,46.9101432337546],[-111.2640023711745,46.90651180588665],[-111.26400088951615,46.902879305301404],[-111.26399940903427,46.899246832534764],[-111.26399792621599,46.89561436064636],[-111.25873309211305,46.895635865679566],[-111.2534682533863,46.89565739642773],[-111.24820342561063,46.89567894815017],[-111.24293866397876,46.895700522707166],[-111.24294625401564,46.899323102531106],[-111.24295385015516,46.90294571553673],[-111.242961441133,46.9065682979602],[-111.24296903409996,46.91019090819756],[-111.24822767773162,46.91017922304946]]]},"properties":{"parcel_id":"47222308101010000","owner":"KICKING BULL LLC","legal_description":"S08, T13 N, R04 E, ALL","tax_record_acres":640,"gis_area_acres":638.42915763,"property_type":"Vacant Land","status":"Included in record-matched ranch candidate; seller/title verification pending"}},{"type":"Feature","geometry":{"type":"Polygon","coordinates":[[[-111.23242140779553,46.91019863723506],[-111.23769522086721,46.91019475845007],[-111.24296903409996,46.91019090819756],[-111.242961441133,46.9065682979602],[-111.24295385015516,46.90294571553673],[-111.24294625401564,46.899323102531106],[-111.24293866397876,46.895700522707166],[-111.2376676780079,46.895715040399566],[-111.23239666507463,46.89572958449826],[-111.23240287017629,46.89934708400612],[-111.23240904857212,46.90296458298462],[-111.23241522836577,46.90658160923786],[-111.23242140779553,46.91019863723506]]]},"properties":{"parcel_id":"47222309201010000","owner":"KICKING BULL LLC","legal_description":"S09, T13 N, R04 E, W2","tax_record_acres":320,"gis_area_acres":319.19642791,"property_type":"Vacant Land","status":"Included in record-matched ranch candidate; seller/title verification pending"}},{"type":"Feature","geometry":{"type":"Polygon","coordinates":[[[-111.22187381021459,46.910206335930475],[-111.22714762188748,46.910202486525],[-111.23242140779553,46.91019863723506],[-111.23241522836577,46.90658160923786],[-111.23240904857212,46.90296458298462],[-111.23240287017629,46.89934708400612],[-111.23239666507463,46.89572958449826],[-111.22712568078462,46.89574412895025],[-111.2218546962625,46.89575867509489],[-111.22185946153398,46.89937058988885],[-111.2218642564465,46.902982506005486],[-111.2218690166108,46.90659442260024],[-111.22187381021459,46.910206335930475]]]},"properties":{"parcel_id":"47222309101010000","owner":"KICKING BULL LLC","legal_description":"S09, T13 N, R04 E, E2","tax_record_acres":320,"gis_area_acres":318.72506742,"property_type":"Vacant Land","status":"Included in record-matched ranch candidate; seller/title verification pending"}},{"type":"Feature","geometry":{"type":"Polygon","coordinates":[[[-111.20068361220714,46.91020404518768],[-111.20598114819032,46.91020463931884],[-111.21127871219119,46.91020520446443],[-111.21657624736997,46.910205770283895],[-111.22187381021459,46.910206335930475],[-111.2218690166108,46.90659442260024],[-111.2218642564465,46.902982506005486],[-111.22185946153398,46.89937058988885],[-111.2218546962625,46.89575867509489],[-111.21655995965143,46.89575669119232],[-111.21126522740614,46.895754709466495],[-111.20597049019798,46.89575272645565],[-111.20067575596516,46.89575074474155],[-111.20067772009976,46.89936407712593],[-111.20067968586872,46.90297740944775],[-111.20068164933345,46.90659074175133],[-111.20068361220714,46.91020404518768]]]},"properties":{"parcel_id":"47222310101010000","owner":"KICKING BULL LLC","legal_description":"S10, T13 N, R04 E, ALL","tax_record_acres":640,"gis_area_acres":639.97028304,"property_type":"Vacant Land","status":"Included in record-matched ranch candidate; seller/title verification pending"}},{"type":"Feature","geometry":{"type":"Polygon","coordinates":[[[-111.17953703825269,46.89945945181867],[-111.17953528424832,46.9030818695384],[-111.17953353033478,46.906704253876626],[-111.17953177865225,46.910326673208985],[-111.18481975818071,46.91029601545991],[-111.1901077091792,46.91026535916917],[-111.1953956591339,46.91023470033172],[-111.20068361220714,46.91020404518768],[-111.20068164933345,46.90659074175133],[-111.20067968586872,46.90297740944775],[-111.20067772009976,46.89936407712593],[-111.20067575596516,46.89575074474155],[-111.19539152164897,46.89577231765553],[-111.19010725796903,46.895793890546834],[-111.1848230253449,46.8958154643209],[-111.17953876453687,46.8958370353514],[-111.17953703825269,46.89945945181867]]]},"properties":{"parcel_id":"47222311101010000","owner":"KICKING BULL LLC","legal_description":"S11, T13 N, R04 E, ALL","tax_record_acres":640,"gis_area_acres":639.68398243,"property_type":"Vacant Land","status":"Included in record-matched ranch candidate; seller/title verification pending"}},{"type":"Feature","geometry":{"type":"Polygon","coordinates":[[[-111.17424333160879,46.910357242513655],[-111.17953177865225,46.910326673208985],[-111.17953353033478,46.906704253876626],[-111.17953528424832,46.9030818695384],[-111.17953703825269,46.89945945181867],[-111.17953876453687,46.8958370353514],[-111.17425341767034,46.895858163593694],[-111.16896804712695,46.8958792637142],[-111.16368267171404,46.89590039215345],[-111.15839729710123,46.8959215209197],[-111.15839246860854,46.89955338263632],[-111.1583876394626,46.9031852424903],[-111.15838280846151,46.906817104085675],[-111.1583780044103,46.91044896428915],[-111.1636664557718,46.91041839104008],[-111.16895488112068,46.910387818263835],[-111.17424333160879,46.910357242513655]]]},"properties":{"parcel_id":"47222312101010000","owner":"KICKING BULL LLC","legal_description":"S12, T13 N, R04 E, ALL","tax_record_acres":640,"gis_area_acres":641.41679525,"property_type":"Vacant Land","status":"Included in record-matched ranch candidate; seller/title verification pending"}},{"type":"Feature","geometry":{"type":"Polygon","coordinates":[[[-111.13742040146762,46.89959900031873],[-111.13740438216057,46.90323861186946],[-111.13738839096376,46.9068782237997],[-111.13737239757096,46.910517832928086],[-111.1426390717088,46.91049728835511],[-111.14790574536731,46.91047674592189],[-111.15317872349438,46.910462700842935],[-111.1583780044103,46.91044896428915],[-111.15838280846151,46.906817104085675],[-111.1583876394626,46.9031852424903],[-111.15839246860854,46.89955338263632],[-111.15839729710123,46.8959215209197],[-111.15328742908984,46.895928615648174],[-111.1480098223406,46.895936029892525],[-111.14800583327414,46.89593610273865],[-111.14272112761759,46.895947734226176],[-111.13743639371496,46.89595938905242],[-111.13742040146762,46.89959900031873]]]},"properties":{"parcel_id":"47222407101010000","owner":"KICKING BULL LLC","legal_description":"S07, T13 N, R05 E, ALL (FRCL)","tax_record_acres":636.28,"gis_area_acres":637.88570437,"property_type":"Vacant Land","status":"Included in record-matched ranch candidate; seller/title verification pending"}},{"type":"Feature","geometry":{"type":"Polygon","coordinates":[[[-111.30621677933351,46.89590647551367],[-111.31150053908027,46.8959134734106],[-111.31678432449364,46.89592044086936],[-111.3220655266497,46.89592388123292],[-111.32741014888083,46.89592740367089],[-111.32740909305834,46.89571937216486],[-111.32738963521436,46.89229882232754],[-111.32738855291728,46.89211115195263],[-111.32736898381773,46.88867023959741],[-111.3273688153273,46.88850293063798],[-111.3273490258783,46.88504176914332],[-111.32734819398362,46.884894822542556],[-111.32732829167718,46.881413326453554],[-111.3221047068031,46.88141335551053],[-111.31682297565233,46.88141338732602],[-111.31153694269169,46.88141336290873],[-111.30625090886694,46.88141334058844],[-111.3062423650887,46.88503661755814],[-111.30623384387405,46.88865989505717],[-111.30622529882073,46.892283199013804],[-111.30621677933351,46.89590647551367]]]},"properties":{"parcel_id":"47222214101010000","owner":"GALT RANCH LP","legal_description":"S14, T13 N, R03 E, ALL","tax_record_acres":640.08,"gis_area_acres":641.08072602,"property_type":"Vacant Land","status":"Included in record-matched ranch candidate; seller/title verification pending"}},{"type":"Feature","geometry":{"type":"Polygon","coordinates":[[[-111.28500452757154,46.89588291025937],[-111.29030759163741,46.89588879482122],[-111.2956106532439,46.89589467910902],[-111.30091371600665,46.89590059187666],[-111.30621677933351,46.89590647551367],[-111.30622529882073,46.892283199013804],[-111.30623384387405,46.88865989505717],[-111.3062423650887,46.88503661755814],[-111.30625090886694,46.88141334058844],[-111.30094209698754,46.88141145663701],[-111.29563328190856,46.881409571811254],[-111.29032447285242,46.88140768776644],[-111.28501565658111,46.8814058020089],[-111.28501358482194,46.88483785330792],[-111.28501347290008,46.885025107540656],[-111.2850113703759,46.8884562401987],[-111.28501151125046,46.888644383497834],[-111.28500801803628,46.89205743539626],[-111.28500782547854,46.89226363416713],[-111.28500433163613,46.89565862860263],[-111.28500452757154,46.89588291025937]]]},"properties":{"parcel_id":"47222213101010000","owner":"GALT RANCH LP","legal_description":"S13, T13 N, R03 E, ALL","tax_record_acres":640,"gis_area_acres":642.84478569,"property_type":"Vacant Land","status":"Included in record-matched ranch candidate; seller/title verification pending"}},{"type":"Feature","geometry":{"type":"Polygon","coordinates":[[[-111.24293866397876,46.895700522707166],[-111.24820342561063,46.89567894815017],[-111.2534682533863,46.89565739642773],[-111.25873309211305,46.895635865679566],[-111.26399792621599,46.89561436064636],[-111.26399444936884,46.89200225202874],[-111.26399094103303,46.88839016820099],[-111.26398746087892,46.8847780866486],[-111.2639839539995,46.88116597492237],[-111.2587209748311,46.88118330961672],[-111.25345799808763,46.88120061961909],[-111.24819505933938,46.88121794940055],[-111.24293215339475,46.88123530174626],[-111.2429337736899,46.88485160573913],[-111.24293539429102,46.88846791064318],[-111.24293704276369,46.89208421602361],[-111.24293866397876,46.895700522707166]]]},"properties":{"parcel_id":"47222317101010000","owner":"KICKING BULL LLC","legal_description":"S17, T13 N, R04 E, ALL","tax_record_acres":640,"gis_area_acres":636.52265443,"property_type":"Vacant Land","status":"Included in record-matched ranch candidate; seller/title verification pending"}},{"type":"Feature","geometry":{"type":"Polygon","coordinates":[[[-111.2376676780079,46.895715040399566],[-111.24293866397876,46.895700522707166],[-111.24293704276369,46.89208421602361],[-111.24293539429102,46.88846791064318],[-111.2429337736899,46.88485160573913],[-111.24293215339475,46.88123530174626],[-111.23765480295502,46.88125284650068],[-111.23237747623212,46.88127041893146],[-111.22710015308385,46.88128796532824],[-111.2218228054002,46.881305510423374],[-111.22183078975355,46.884918787429605],[-111.22183875116612,46.88853209182115],[-111.22184671024576,46.892145370155546],[-111.2218546962625,46.89575867509489],[-111.22712568078462,46.89574412895025],[-111.23239666507463,46.89572958449826],[-111.2376676780079,46.895715040399566]]]},"properties":{"parcel_id":"47222316101010000","owner":"KICKING BULL LLC","legal_description":"S16, T13 N, R04 E, ALL","tax_record_acres":641,"gis_area_acres":637.87123674,"property_type":"Improved Property","status":"Included in record-matched ranch candidate; seller/title verification pending"}},{"type":"Feature","geometry":{"type":"Polygon","coordinates":[[[-111.20067575596516,46.89575074474155],[-111.20597049019798,46.89575272645565],[-111.21126522740614,46.895754709466495],[-111.21655995965143,46.89575669119232],[-111.2218546962625,46.89575867509489],[-111.22184671024576,46.892145370155546],[-111.22183875116612,46.88853209182115],[-111.22183078975355,46.884918787429605],[-111.2218228054002,46.881305510423374],[-111.21653228707568,46.88129972255534],[-111.21124176810554,46.88129396248339],[-111.20595255358386,46.881288229619855],[-111.2006633422889,46.881282524614306],[-111.20066644828357,46.884899579820974],[-111.20066954950347,46.888516635116176],[-111.20067265245396,46.8921336885882],[-111.20067575596516,46.89575074474155]]]},"properties":{"parcel_id":"47222315101010000","owner":"KICKING BULL LLC","legal_description":"S15, T13 N, R04 E, ALL","tax_record_acres":640,"gis_area_acres":640.12956378,"property_type":"Improved Property","status":"Included in record-matched ranch candidate; seller/title verification pending"}}]}
