{
  "type": "FeatureCollection",
  "name": "Kicking Bull 21,497-acre record-matched candidate",
  "features": [
    {
      "type": "Feature",
      "id": "ranch-boundary-candidate",
      "properties": {
        "role": "ranch_boundary_candidate",
        "name": "Kicking Bull / Galt 21,497-Acre Ranch Candidate",
        "status": "Record-matched candidate; verify against sale parcel schedule or title before publication",
        "target_acres": 21497.0,
        "tax_record_acres": 21515.795,
        "gis_record_acres": 21472.54,
        "tax_acre_variance_from_target": 18.795,
        "gis_acre_variance_from_target": -24.46,
        "included_parcel_count": 43,
        "included_owner_parcel_counts": {
          "KICKING BULL LLC": 32,
          "GALT RANCH LP": 11
        },
        "seed_coordinate": {
          "latitude": 46.8866667,
          "longitude": -111.22825
        },
        "methodology": "Dissolved Montana cadastral geometry for all 32 nearby KICKING BULL LLC parcels plus 11 adjacent/associated GALT RANCH LP parcels that produce the closest coherent record match to the stated 21,497 acres.",
        "source": {
          "publisher": "Montana State Library / Montana Department of Revenue",
          "service": "Montana Cadastral Framework, Montana Parcels layer",
          "url": "https://gisservice.mt.gov/ArcGIS/rest/services/msdi_cadastral_map_v1/MapServer/1",
          "coordinate_system": "WGS 84 longitude/latitude (EPSG:4326)",
          "generated_on": "2026-09-01"
        },
        "excluded_nearby_galt_parcels": [
          {
            "parcel_id": "47222212101010000",
            "owner": "GALT RANCH LP",
            "legal_description": "S12, T13 N, R03 E, E2, SW",
            "tax_acres": 480.0,
            "gis_acres": 480.007282,
            "reason": "Excluded from acreage-and-geography match"
          },
          {
            "parcel_id": "47212002101010000",
            "owner": "GALT RANCH LP",
            "legal_description": "S02, T12 N, R03 E, ALL (FRL)",
            "tax_acres": 690.0,
            "gis_acres": 688.51864,
            "reason": "Excluded from acreage-and-geography match"
          }
        ],
        "parcel_manifest": [
          {
            "parcel_id": "47222211101010000",
            "owner": "GALT RANCH LP",
            "assessment_code": "0000000668",
            "legal_description": "S11, T13 N, R03 E, ALL (FRL)",
            "tax_acres": 644.36,
            "gis_acres": 640.783618,
            "property_type": "Vacant Land"
          },
          {
            "parcel_id": "47222213101010000",
            "owner": "GALT RANCH LP",
            "assessment_code": "0000000668",
            "legal_description": "S13, T13 N, R03 E, ALL",
            "tax_acres": 640.0,
            "gis_acres": 642.844786,
            "property_type": "Vacant Land"
          },
          {
            "parcel_id": "47222214101010000",
            "owner": "GALT RANCH LP",
            "assessment_code": "0000000668",
            "legal_description": "S14, T13 N, R03 E, ALL",
            "tax_acres": 640.08,
            "gis_acres": 641.080726,
            "property_type": "Vacant Land"
          },
          {
            "parcel_id": "47222223101010000",
            "owner": "GALT RANCH LP",
            "assessment_code": "0000000668",
            "legal_description": "S23, T13 N, R03 E, ALL",
            "tax_acres": 638.92,
            "gis_acres": 640.699144,
            "property_type": "Vacant Land"
          },
          {
            "parcel_id": "47222225101010000",
            "owner": "GALT RANCH LP",
            "assessment_code": "0000000668",
            "legal_description": "S25, T13 N, R03 E, ALL",
            "tax_acres": 640.0,
            "gis_acres": 642.966552,
            "property_type": "Vacant Land"
          },
          {
            "parcel_id": "47222226101010000",
            "owner": "GALT RANCH LP",
            "assessment_code": "0000000668",
            "legal_description": "S26, T13 N, R03 E, ALL",
            "tax_acres": 640.0,
            "gis_acres": 637.972673,
            "property_type": "Vacant Land"
          },
          {
            "parcel_id": "47222235101010000",
            "owner": "GALT RANCH LP",
            "assessment_code": "0000000668",
            "legal_description": "S35, T13 N, R03 E, ALL",
            "tax_acres": 640.0,
            "gis_acres": 640.357184,
            "property_type": "Vacant Land"
          },
          {
            "parcel_id": "47222236101010000",
            "owner": "GALT RANCH LP",
            "assessment_code": "0000000668",
            "legal_description": "S36, T13 N, R03 E, ALL (FRL)",
            "tax_acres": 641.37,
            "gis_acres": 643.399789,
            "property_type": "Vacant Land"
          },
          {
            "parcel_id": "47222319401010000",
            "owner": "GALT RANCH LP",
            "assessment_code": "0000000668",
            "legal_description": "S19, T13 N, R04 E, SW,PORTION OF SE",
            "tax_acres": 259.0,
            "gis_acres": 262.153558,
            "property_type": "Vacant Land"
          },
          {
            "parcel_id": "47222330202010000",
            "owner": "GALT RANCH LP",
            "assessment_code": "0000000668",
            "legal_description": "S30, T13 N, R04 E, W2 (FRL)",
            "tax_acres": 320.0,
            "gis_acres": 317.080534,
            "property_type": "Vacant Land"
          },
          {
            "parcel_id": "47222331201010000",
            "owner": "GALT RANCH LP",
            "assessment_code": "0000000668",
            "legal_description": "S31, T13 N, R04 E, W2",
            "tax_acres": 320.0,
            "gis_acres": 317.357397,
            "property_type": "Vacant Land"
          },
          {
            "parcel_id": "47222301101010000",
            "owner": "KICKING BULL LLC",
            "assessment_code": "0000000478",
            "legal_description": "S01, T13 N, R04 E, ALL (FRCL)",
            "tax_acres": 643.12,
            "gis_acres": 644.121512,
            "property_type": "Vacant Land"
          },
          {
            "parcel_id": "47222302101010000",
            "owner": "KICKING BULL LLC",
            "assessment_code": "0000000478",
            "legal_description": "S02, T13 N, R04 E, ALL (FRCL)",
            "tax_acres": 648.2,
            "gis_acres": 647.431198,
            "property_type": "Vacant Land"
          },
          {
            "parcel_id": "47222303101010000",
            "owner": "KICKING BULL LLC",
            "assessment_code": "0000000478",
            "legal_description": "S03, T13 N, R04 E, ALL (FRCL)",
            "tax_acres": 648.88,
            "gis_acres": 648.676597,
            "property_type": "Vacant Land"
          },
          {
            "parcel_id": "47222304201010000",
            "owner": "KICKING BULL LLC",
            "assessment_code": "0000002407",
            "legal_description": "S04, T13 N, R04 E, W2 (FRL)",
            "tax_acres": 323.35,
            "gis_acres": 322.708677,
            "property_type": "Vacant Land"
          },
          {
            "parcel_id": "47222304401010000",
            "owner": "KICKING BULL LLC",
            "assessment_code": "0000000478",
            "legal_description": "S04, T13 N, R04 E, E2 (FRCL)   AG IMPROVEMENT",
            "tax_acres": 323.65,
            "gis_acres": 322.975164,
            "property_type": "Improved Property"
          },
          {
            "parcel_id": "47222305101010000",
            "owner": "KICKING BULL LLC",
            "assessment_code": "0000002407",
            "legal_description": "S05, T13 N, R04 E, ALL (FRL)",
            "tax_acres": 646.24,
            "gis_acres": 643.841523,
            "property_type": "Vacant Land"
          },
          {
            "parcel_id": "47222306202010000",
            "owner": "KICKING BULL LLC",
            "assessment_code": "0000002407",
            "legal_description": "S06, T13 N, R04 E, ACRES 364.162, LOTS 1& 2, S2NE4, SE4 ,EXCEPTING THEREFROM THAT PORTION LYING WEST OF THE SMITH RIVER",
            "tax_acres": 364.162,
            "gis_acres": 364.162334,
            "property_type": "Vacant Land"
          },
          {
            "parcel_id": "47222307101010000",
            "owner": "KICKING BULL LLC",
            "assessment_code": "0000002407",
            "legal_description": "S07, T13 N, R04 E, PART E OF RIVER",
            "tax_acres": 319.312,
            "gis_acres": 319.291892,
            "property_type": "Vacant Land"
          },
          {
            "parcel_id": "47222308101010000",
            "owner": "KICKING BULL LLC",
            "assessment_code": "0000002407",
            "legal_description": "S08, T13 N, R04 E, ALL",
            "tax_acres": 640.0,
            "gis_acres": 638.429158,
            "property_type": "Vacant Land"
          },
          {
            "parcel_id": "47222309101010000",
            "owner": "KICKING BULL LLC",
            "assessment_code": "0000000478",
            "legal_description": "S09, T13 N, R04 E, E2",
            "tax_acres": 320.0,
            "gis_acres": 318.725067,
            "property_type": "Vacant Land"
          },
          {
            "parcel_id": "47222309201010000",
            "owner": "KICKING BULL LLC",
            "assessment_code": "0000002407",
            "legal_description": "S09, T13 N, R04 E, W2",
            "tax_acres": 320.0,
            "gis_acres": 319.196428,
            "property_type": "Vacant Land"
          },
          {
            "parcel_id": "47222310101010000",
            "owner": "KICKING BULL LLC",
            "assessment_code": "0000000478",
            "legal_description": "S10, T13 N, R04 E, ALL",
            "tax_acres": 640.0,
            "gis_acres": 639.970283,
            "property_type": "Vacant Land"
          },
          {
            "parcel_id": "47222311101010000",
            "owner": "KICKING BULL LLC",
            "assessment_code": "0000000478",
            "legal_description": "S11, T13 N, R04 E, ALL",
            "tax_acres": 640.0,
            "gis_acres": 639.683982,
            "property_type": "Vacant Land"
          },
          {
            "parcel_id": "47222312101010000",
            "owner": "KICKING BULL LLC",
            "assessment_code": "0000000478",
            "legal_description": "S12, T13 N, R04 E, ALL",
            "tax_acres": 640.0,
            "gis_acres": 641.416795,
            "property_type": "Vacant Land"
          },
          {
            "parcel_id": "47222315101010000",
            "owner": "KICKING BULL LLC",
            "assessment_code": "0000000478",
            "legal_description": "S15, T13 N, R04 E, ALL",
            "tax_acres": 640.0,
            "gis_acres": 640.129564,
            "property_type": "Improved Property"
          },
          {
            "parcel_id": "47222316101010000",
            "owner": "KICKING BULL LLC",
            "assessment_code": "0000000478",
            "legal_description": "S16, T13 N, R04 E, ALL",
            "tax_acres": 641.0,
            "gis_acres": 637.871237,
            "property_type": "Improved Property"
          },
          {
            "parcel_id": "47222317101010000",
            "owner": "KICKING BULL LLC",
            "assessment_code": "0000000478",
            "legal_description": "S17, T13 N, R04 E, ALL",
            "tax_acres": 640.0,
            "gis_acres": 636.522654,
            "property_type": "Vacant Land"
          },
          {
            "parcel_id": "47222320101010000",
            "owner": "KICKING BULL LLC",
            "assessment_code": "0000000478",
            "legal_description": "S20, T13 N, R04 E, N2, SE",
            "tax_acres": 480.0,
            "gis_acres": 477.790649,
            "property_type": "Vacant Land"
          },
          {
            "parcel_id": "47222320301010000",
            "owner": "KICKING BULL LLC",
            "assessment_code": "0000000478",
            "legal_description": "S20, T13 N, R04 E",
            "tax_acres": 160.0,
            "gis_acres": 159.30835,
            "property_type": "Vacant Land"
          },
          {
            "parcel_id": "47222321101010000",
            "owner": "KICKING BULL LLC",
            "assessment_code": "0000000478",
            "legal_description": "S21, T13 N, R04 E, ALL",
            "tax_acres": 640.0,
            "gis_acres": 638.522404,
            "property_type": "Vacant Land"
          },
          {
            "parcel_id": "47222322201010000",
            "owner": "KICKING BULL LLC",
            "assessment_code": "0000000478",
            "legal_description": "S22, T13 N, R04 E, W2",
            "tax_acres": 320.0,
            "gis_acres": 319.377402,
            "property_type": "Vacant Land"
          },
          {
            "parcel_id": "47222407101010000",
            "owner": "KICKING BULL LLC",
            "assessment_code": "0000000478",
            "legal_description": "S07, T13 N, R05 E, ALL (FRCL)",
            "tax_acres": 636.28,
            "gis_acres": 637.885704,
            "property_type": "Vacant Land"
          },
          {
            "parcel_id": "47222418101010000",
            "owner": "KICKING BULL LLC",
            "assessment_code": "0000000478",
            "legal_description": "S18, T13 N, R05 E, ALL (FRCL)",
            "tax_acres": 635.2,
            "gis_acres": 635.582804,
            "property_type": "Vacant Land"
          },
          {
            "parcel_id": "47234725401010000",
            "owner": "KICKING BULL LLC",
            "assessment_code": "0000000478",
            "legal_description": "S25, T14 N, R03 E, ACRES 208.151, ALL THAT PORTION OF THE E 2 LYING EAST OF THE LOW WATER MARK OF THE SMITH RIVER    AG IMPROVEMENTS",
            "tax_acres": 208.151,
            "gis_acres": 184.379844,
            "property_type": "Improved Property"
          },
          {
            "parcel_id": "47234828301010000",
            "owner": "KICKING BULL LLC",
            "assessment_code": "0000000478",
            "legal_description": "S28, T14 N, R04 E, S2, S2NW",
            "tax_acres": 400.0,
            "gis_acres": 399.819391,
            "property_type": "Vacant Land"
          },
          {
            "parcel_id": "47234829301010000",
            "owner": "KICKING BULL LLC",
            "assessment_code": "0000000478",
            "legal_description": "S29, T14 N, R04 E, S2, S2NE",
            "tax_acres": 400.0,
            "gis_acres": 398.77862,
            "property_type": "Vacant Land"
          },
          {
            "parcel_id": "47234830301010000",
            "owner": "KICKING BULL LLC",
            "assessment_code": "0000000478",
            "legal_description": "S30, T14 N, R04 E, W2W2, NE4SW4  EXCEPTING THEREFROM ALL THAT PORTION OF THE W2W2 LYING WEST OF THE LOW WATER MARK OF THE SMITH RIVER",
            "tax_acres": 155.9,
            "gis_acres": 155.080631,
            "property_type": "Vacant Land"
          },
          {
            "parcel_id": "47234831101010000",
            "owner": "KICKING BULL LLC",
            "assessment_code": "0000000478",
            "legal_description": "S31, T14 N, R04 E, E2",
            "tax_acres": 498.62,
            "gis_acres": 497.426066,
            "property_type": "Vacant Land"
          },
          {
            "parcel_id": "47234832101010000",
            "owner": "KICKING BULL LLC",
            "assessment_code": "0000000478",
            "legal_description": "S32, T14 N, R04 E, ALL",
            "tax_acres": 640.0,
            "gis_acres": 638.528564,
            "property_type": "Vacant Land"
          },
          {
            "parcel_id": "47234833101010000",
            "owner": "KICKING BULL LLC",
            "assessment_code": "0000000478",
            "legal_description": "S33, T14 N, R04 E, ALL",
            "tax_acres": 640.0,
            "gis_acres": 639.461511,
            "property_type": "Vacant Land"
          },
          {
            "parcel_id": "47234834101010000",
            "owner": "KICKING BULL LLC",
            "assessment_code": "0000000478",
            "legal_description": "S34, T14 N, R04 E",
            "tax_acres": 160.0,
            "gis_acres": 159.69463,
            "property_type": "Vacant Land"
          },
          {
            "parcel_id": "47234834201010000",
            "owner": "KICKING BULL LLC",
            "assessment_code": "0000000478",
            "legal_description": "S34, T14 N, R04 E, NW, S2",
            "tax_acres": 480.0,
            "gis_acres": 479.053267,
            "property_type": "Vacant Land"
          }
        ],
        "publication_note": "Use this geometry for preliminary web-map production only. Cadastral geometry is not a licensed survey, and the Galt parcel selection is inferred because no sale parcel schedule or title exhibit was supplied."
      },
      "geometry": {
        "type": "MultiPolygon",
        "coordinates": [
          [
            [
              [
                -111.27795164964694,
                46.83791595157305
              ],
              [
                -111.27977423697708,
                46.837916661899705
              ],
              [
                -111.28323445841013,
                46.83791806023827
              ],
              [
                -111.28505493384817,
                46.83791829969713
              ],
              [
                -111.2888152517478,
                46.83791752097722
              ],
              [
                -111.29034298880678,
                46.83791607371033
              ],
              [
                -111.29405516563698,
                46.837912574315595
              ],
              [
                -111.29563101901446,
                46.83791106961063
              ],
              [
                -111.29929106488386,
                46.83790922131831
              ],
              [
                -111.29929511372966,
                46.837909182690964
              ],
              [
                -111.30092008071466,
                46.8379076201789
              ],
              [
                -111.3045346429315,
                46.83790415352074
              ],
              [
                -111.30620913910442,
                46.83790255991234
              ],
              [
                -111.30977414284547,
                46.837899095859775
              ],
              [
                -111.31149116850152,
                46.837898084579784
              ],
              [
                -111.31504503506257,
                46.83789592464295
              ],
              [
                -111.31677317360162,
                46.83789488493796
              ],
              [
                -111.32031592646022,
                46.83789378308866
              ],
              [
                -111.32205398274513,
                46.83789271590721
              ],
              [
                -111.3255871978068,
                46.83789058445035
              ],
              [
                -111.32733478278298,
                46.83788954641772
              ],
              [
                -111.32732149040876,
                46.84151818319753
              ],
              [
                -111.32730816720812,
                46.845146852124735
              ],
              [
                -111.32729487100141,
                46.848775517146315
              ],
              [
                -111.32728155079275,
                46.852404183565895
              ],
              [
                -111.32729017611545,
                46.85601773794404
              ],
              [
                -111.32729877114532,
                46.85963129205352
              ],
              [
                -111.32730736568722,
                46.86324487331313
              ],
              [
                -111.32731598948418,
                46.86685842991397
              ],
              [
                -111.32731902762589,
                46.870465400986994
              ],
              [
                -111.32731905780307,
                46.87049703975653
              ],
              [
                -111.32732206886126,
                46.874072372095156
              ],
              [
                -111.32732212629716,
                46.87413567936126
              ],
              [
                -111.32732514104615,
                46.87767954445132
              ],
              [
                -111.32732522614177,
                46.87777449316707
              ],
              [
                -111.32732818202493,
                46.88128671196088
              ],
              [
                -111.32732829167718,
                46.881413326453554
              ],
              [
                -111.32734819398362,
                46.884894822542556
              ],
              [
                -111.3273490258783,
                46.88504176914332
              ],
              [
                -111.3273688153273,
                46.88850293063798
              ],
              [
                -111.32736898381773,
                46.88867023959741
              ],
              [
                -111.32738855291728,
                46.89211115195263
              ],
              [
                -111.32738963521436,
                46.89229882232754
              ],
              [
                -111.32740909305834,
                46.89571937216486
              ],
              [
                -111.32741014888083,
                46.89592740367089
              ],
              [
                -111.32743563162698,
                46.89937703758994
              ],
              [
                -111.32743671561522,
                46.89952581922811
              ],
              [
                -111.32746261820631,
                46.90303467420593
              ],
              [
                -111.3274630875732,
                46.90312423342226
              ],
              [
                -111.32748943166209,
                46.906677895793145
              ],
              [
                -111.32748976520467,
                46.906722645437476
              ],
              [
                -111.3275164172545,
                46.91032108666735
              ],
              [
                -111.32201281335142,
                46.91032723428105
              ],
              [
                -111.31673352727611,
                46.91033307206232
              ],
              [
                -111.31145474239305,
                46.9103361884642
              ],
              [
                -111.30617595459309,
                46.91033930418622
              ],
              [
                -111.30618616745917,
                46.90673111031067
              ],
              [
                -111.30619638341678,
                46.90312289108889
              ],
              [
                -111.30620656908917,
                46.8995146695706
              ],
              [
                -111.30621677933351,
                46.89590647551367
              ],
              [
                -111.30091371600665,
                46.89590059187666
              ],
              [
                -111.2956106532439,
                46.89589467910902
              ],
              [
                -111.29030759163741,
                46.89588879482122
              ],
              [
                -111.28500452757154,
                46.89588291025937
              ],
              [
                -111.28500433163613,
                46.89565862860263
              ],
              [
                -111.28500782547854,
                46.89226363416713
              ],
              [
                -111.28500801803628,
                46.89205743539626
              ],
              [
                -111.28501151125046,
                46.888644383497834
              ],
              [
                -111.2850113703759,
                46.8884562401987
              ],
              [
                -111.28501347290008,
                46.885025107540656
              ],
              [
                -111.28501358482194,
                46.88483785330792
              ],
              [
                -111.28501565658111,
                46.8814058020089
              ],
              [
                -111.29032447285242,
                46.88140768776644
              ],
              [
                -111.29563328190856,
                46.881409571811254
              ],
              [
                -111.30094209698754,
                46.88141145663701
              ],
              [
                -111.30625090886694,
                46.88141334058844
              ],
              [
                -111.30624698246332,
                46.8777864795026
              ],
              [
                -111.30624307580797,
                46.874159641550996
              ],
              [
                -111.30623917289024,
                46.87053278018454
              ],
              [
                -111.30623524785182,
                46.86690594624464
              ],
              [
                -111.30094210368983,
                46.86691264581423
              ],
              [
                -111.29564895895183,
                46.86691931791958
              ],
              [
                -111.29035578783912,
                46.8669260160837
              ],
              [
                -111.28506264500206,
                46.8669326872298
              ],
              [
                -111.28505351429305,
                46.87034654499011
              ],
              [
                -111.28505295698858,
                46.87055096565047
              ],
              [
                -111.28504382806463,
                46.87396301659742
              ],
              [
                -111.27982629977356,
                46.873957575435576
              ],
              [
                -111.27454540990233,
                46.873951827188165
              ],
              [
                -111.26926468606976,
                46.87394585833238
              ],
              [
                -111.26879098171302,
                46.87396683788611
              ],
              [
                -111.27131277554258,
                46.8705414095291
              ],
              [
                -111.2713456032249,
                46.87024316742131
              ],
              [
                -111.27094644306985,
                46.86969539716713
              ],
              [
                -111.26881331472643,
                46.86951130736047
              ],
              [
                -111.26761319617123,
                46.869511345637605
              ],
              [
                -111.26541326252371,
                46.86973831778025
              ],
              [
                -111.26398398854104,
                46.870016634823735
              ],
              [
                -111.26398394707189,
                46.87032641566623
              ],
              [
                -111.26398395831593,
                46.8739396093958
              ],
              [
                -111.26398397111028,
                46.877552808561745
              ],
              [
                -111.2639839539995,
                46.88116597492237
              ],
              [
                -111.26398746087892,
                46.8847780866486
              ],
              [
                -111.26399094103303,
                46.88839016820099
              ],
              [
                -111.26399444936884,
                46.89200225202874
              ],
              [
                -111.26399792621599,
                46.89561436064636
              ],
              [
                -111.26927846334326,
                46.89562219246437
              ],
              [
                -111.2738082795095,
                46.89562889019725
              ],
              [
                -111.2738584742711,
                46.89584417772139
              ],
              [
                -111.27385785449553,
                46.896346107598525
              ],
              [
                -111.27412454836036,
                46.8972383136859
              ],
              [
                -111.27428980651999,
                46.898427214713024
              ],
              [
                -111.27408469104186,
                46.89925121102592
              ],
              [
                -111.27398873140818,
                46.89963839306458
              ],
              [
                -111.27328775095394,
                46.90062133827326
              ],
              [
                -111.27165272693803,
                46.9023575576679
              ],
              [
                -111.27137582402142,
                46.90287475583564
              ],
              [
                -111.27128537110092,
                46.90304352427172
              ],
              [
                -111.27128471839335,
                46.90409437271829
              ],
              [
                -111.2718503743406,
                46.90551141701057
              ],
              [
                -111.27211652370934,
                46.90587758594469
              ],
              [
                -111.27295063219482,
                46.90647235256922
              ],
              [
                -111.27317827532814,
                46.906527609457264
              ],
              [
                -111.273516757462,
                46.90660959627114
              ],
              [
                -111.27441756318122,
                46.906884519417034
              ],
              [
                -111.27456325414543,
                46.90689657276377
              ],
              [
                -111.27551790866099,
                46.90697627379873
              ],
              [
                -111.27705194638048,
                46.90731930132056
              ],
              [
                -111.27918586140495,
                46.90805135658436
              ],
              [
                -111.27945303702462,
                46.90807420385416
              ],
              [
                -111.2798455680442,
                46.90822456517269
              ],
              [
                -111.281487255912,
                46.908852244728635
              ],
              [
                -111.28188718630979,
                46.90912627543641
              ],
              [
                -111.28201999438876,
                46.90935540293172
              ],
              [
                -111.28212006913941,
                46.90999531248642
              ],
              [
                -111.28202642510631,
                46.910217320604275
              ],
              [
                -111.27984453370026,
                46.910208542508784
              ],
              [
                -111.27456197698912,
                46.91018630613953
              ],
              [
                -111.2745669308362,
                46.91381191309195
              ],
              [
                -111.27457188281548,
                46.91743752087167
              ],
              [
                -111.27537393407529,
                46.91744113802829
              ],
              [
                -111.27562584322968,
                46.91782460666252
              ],
              [
                -111.27601061067111,
                46.918111754591244
              ],
              [
                -111.2764219848645,
                46.9182956367375
              ],
              [
                -111.2773304682315,
                46.91860324468697
              ],
              [
                -111.27829957388133,
                46.9191827799577
              ],
              [
                -111.27929267222466,
                46.92013155570757
              ],
              [
                -111.27947515090938,
                46.920683148196154
              ],
              [
                -111.27932915825102,
                46.921231819022985
              ],
              [
                -111.2790342451685,
                46.92168839327936
              ],
              [
                -111.2786433719324,
                46.9220585738175
              ],
              [
                -111.27795861252824,
                46.92240821511079
              ],
              [
                -111.2773092301649,
                46.92271963596581
              ],
              [
                -111.27653162799426,
                46.92303304679086
              ],
              [
                -111.2754963500153,
                46.92331278887093
              ],
              [
                -111.27458045031423,
                46.923716301208486
              ],
              [
                -111.27458187349986,
                46.92475768188502
              ],
              [
                -111.27524190726852,
                46.92475664151701
              ],
              [
                -111.2769482148072,
                46.925367011636894
              ],
              [
                -111.27873211349501,
                46.925959938590495
              ],
              [
                -111.27902997333908,
                46.926314639777516
              ],
              [
                -111.27902617478311,
                46.92691903829209
              ],
              [
                -111.2787212501404,
                46.927789458941156
              ],
              [
                -111.27833236180592,
                46.92900418760009
              ],
              [
                -111.27825056874886,
                46.929413795292106
              ],
              [
                -111.27776311044121,
                46.92981338236252
              ],
              [
                -111.27769156430386,
                46.93125184016559
              ],
              [
                -111.27796886163367,
                46.931704865731184
              ],
              [
                -111.27936733567446,
                46.93289178204232
              ],
              [
                -111.28067703175898,
                46.93355739514841
              ],
              [
                -111.28264489322665,
                46.93465373722181
              ],
              [
                -111.28381982073148,
                46.93556642058891
              ],
              [
                -111.28500228520782,
                46.93671571742741
              ],
              [
                -111.28501509715207,
                46.93920349505781
              ],
              [
                -111.28741980011854,
                46.93920530404787
              ],
              [
                -111.2896832738132,
                46.940508254067076
              ],
              [
                -111.29031238540584,
                46.940553713942634
              ],
              [
                -111.2938809789279,
                46.94081166758739
              ],
              [
                -111.29560759132092,
                46.941823431856726
              ],
              [
                -111.29626804108717,
                46.942210424928696
              ],
              [
                -111.29633751901629,
                46.94282888155627
              ],
              [
                -111.29665520745415,
                46.94565663175501
              ],
              [
                -111.29572644053597,
                46.94644133733403
              ],
              [
                -111.29564707616152,
                46.9465083960746
              ],
              [
                -111.29527367026252,
                46.946823882746
              ],
              [
                -111.29072375661931,
                46.94867524536575
              ],
              [
                -111.29038515663129,
                46.948695590165066
              ],
              [
                -111.28510848833555,
                46.94901253386458
              ],
              [
                -111.28151363986414,
                46.94961661265411
              ],
              [
                -111.27994542666961,
                46.94967523135749
              ],
              [
                -111.27994320060064,
                46.94924013872046
              ],
              [
                -111.27992883452994,
                46.946432770954026
              ],
              [
                -111.27465032687836,
                46.9464497752268
              ],
              [
                -111.27464354104501,
                46.942832527708866
              ],
              [
                -111.27991018713902,
                46.942821050650664
              ],
              [
                -111.27989156999799,
                46.93920933240127
              ],
              [
                -111.27463670396597,
                46.939215251071786
              ],
              [
                -111.26936183286827,
                46.93922864641644
              ],
              [
                -111.26408696626285,
                46.93924201441515
              ],
              [
                -111.2640637189786,
                46.94286278960021
              ],
              [
                -111.26404050289692,
                46.946483567629585
              ],
              [
                -111.25878538815968,
                46.946491127532155
              ],
              [
                -111.25353027081718,
                46.9464984108845
              ],
              [
                -111.25353244344782,
                46.95011082496682
              ],
              [
                -111.24825465202785,
                46.950121295248906
              ],
              [
                -111.2429769339412,
                46.95013153525892
              ],
              [
                -111.23769002414389,
                46.95013735808221
              ],
              [
                -111.23240314148683,
                46.95014295681392
              ],
              [
                -111.23239499078265,
                46.94652570930032
              ],
              [
                -111.22710599775947,
                46.946531974721566
              ],
              [
                -111.22181700472318,
                46.946537991944275
              ],
              [
                -111.22180465899021,
                46.94292210482077
              ],
              [
                -111.22179231238057,
                46.93930621841732
              ],
              [
                -111.2165041487571,
                46.93931751324499
              ],
              [
                -111.21121601173172,
                46.93932880708354
              ],
              [
                -111.20592787685935,
                46.93934007599343
              ],
              [
                -111.20063971544597,
                46.939351369017004
              ],
              [
                -111.20064005706949,
                46.93573712325468
              ],
              [
                -111.20064037006202,
                46.93212284442013
              ],
              [
                -111.20064068409651,
                46.92850859780702
              ],
              [
                -111.20064099466315,
                46.92489432407797
              ],
              [
                -111.19535435584132,
                46.92490375788702
              ],
              [
                -111.19006774308811,
                46.92491316559139
              ],
              [
                -111.18478110189962,
                46.92492256960472
              ],
              [
                -111.17949449027107,
                46.92493197627297
              ],
              [
                -111.17420668944202,
                46.92494427264147
              ],
              [
                -111.16891890687792,
                46.92495656631482
              ],
              [
                -111.1636310993781,
                46.92496886332574
              ],
              [
                -111.15834332143785,
                46.92498118448663
              ],
              [
                -111.15834906920004,
                46.92135287895168
              ],
              [
                -111.15835484253475,
                46.91772457378931
              ],
              [
                -111.15836642554281,
                46.91408676908425
              ],
              [
                -111.1583780044103,
                46.91044896428915
              ],
              [
                -111.15317872349438,
                46.910462700842935
              ],
              [
                -111.14790574536731,
                46.91047674592189
              ],
              [
                -111.1426390717088,
                46.91049728835511
              ],
              [
                -111.13737239757096,
                46.910517832928086
              ],
              [
                -111.13738839096376,
                46.9068782237997
              ],
              [
                -111.13740438216057,
                46.90323861186946
              ],
              [
                -111.13742040146762,
                46.89959900031873
              ],
              [
                -111.13743639371496,
                46.89595938905242
              ],
              [
                -111.13744238448712,
                46.89233669497416
              ],
              [
                -111.13744837581855,
                46.88871400085221
              ],
              [
                -111.13745434017365,
                46.88509130799587
              ],
              [
                -111.13746033262514,
                46.88146861382955
              ],
              [
                -111.14273723941812,
                46.881453901700745
              ],
              [
                -111.1480141451297,
                46.88143921946992
              ],
              [
                -111.15329099567778,
                46.881421786054766
              ],
              [
                -111.15842276003029,
                46.88140477241692
              ],
              [
                -111.1584164000811,
                46.885033937662485
              ],
              [
                -111.15841001659072,
                46.888663132044684
              ],
              [
                -111.15840365720625,
                46.89229232514807
              ],
              [
                -111.15839729710123,
                46.8959215209197
              ],
              [
                -111.16368267171404,
                46.89590039215345
              ],
              [
                -111.16896804712695,
                46.8958792637142
              ],
              [
                -111.17425341767034,
                46.895858163593694
              ],
              [
                -111.17953876453687,
                46.8958370353514
              ],
              [
                -111.1848230253449,
                46.8958154643209
              ],
              [
                -111.19010725796903,
                46.895793890546834
              ],
              [
                -111.19539152164897,
                46.89577231765553
              ],
              [
                -111.20067575596516,
                46.89575074474155
              ],
              [
                -111.20067265245396,
                46.8921336885882
              ],
              [
                -111.20066954950347,
                46.888516635116176
              ],
              [
                -111.20066644828357,
                46.884899579820974
              ],
              [
                -111.2006633422889,
                46.881282524614306
              ],
              [
                -111.20595255358386,
                46.881288229619855
              ],
              [
                -111.21124176810554,
                46.88129396248339
              ],
              [
                -111.21123413979728,
                46.87768237999429
              ],
              [
                -111.21122648191054,
                46.874070824117005
              ],
              [
                -111.21121885163868,
                46.87045874122735
              ],
              [
                -111.21121120008821,
                46.866846656944055
              ],
              [
                -111.21649185978573,
                46.86685558470244
              ],
              [
                -111.22177254737133,
                46.86686451097288
              ],
              [
                -111.22705565179523,
                46.86684077184048
              ],
              [
                -111.2323387579338,
                46.866817027690914
              ],
              [
                -111.23762186612996,
                46.86679328842202
              ],
              [
                -111.2429049994435,
                46.86676957618927
              ],
              [
                -111.24817468972138,
                46.86675544776377
              ],
              [
                -111.25344440902582,
                46.866741367387974
              ],
              [
                -111.25871418802905,
                46.86672730847684
              ],
              [
                -111.26398394202333,
                46.866713248923
              ],
              [
                -111.26398722594547,
                46.86671323600361
              ],
              [
                -111.26926752714051,
                46.86671363469473
              ],
              [
                -111.27454780799853,
                46.86671404615021
              ],
              [
                -111.27455108628361,
                46.86671402131055
              ],
              [
                -111.27453729883038,
                46.863118270932965
              ],
              [
                -111.27452348537284,
                46.85952254991409
              ],
              [
                -111.27450966846692,
                46.855922216800806
              ],
              [
                -111.27449588322037,
                46.85232191037339
              ],
              [
                -111.27449528967891,
                46.848721217187155
              ],
              [
                -111.27449469979095,
                46.84512055112423
              ],
              [
                -111.27449410944376,
                46.8415178010233
              ],
              [
                -111.27449351789419,
                46.83791505023782
              ],
              [
                -111.27795164964694,
                46.83791595157305
              ]
            ]
          ],
          [
            [
              [
                -111.2799592076164,
                46.95237476407746
              ],
              [
                -111.27995618015738,
                46.951781057051676
              ],
              [
                -111.28026138923757,
                46.95195624816849
              ],
              [
                -111.28276534774682,
                46.95363789483206
              ],
              [
                -111.28151681424681,
                46.95364256331202
              ],
              [
                -111.27996576650723,
                46.95364837588748
              ],
              [
                -111.2799592076164,
                46.95237476407746
              ]
            ]
          ]
        ]
      }
    },
    {
      "type": "Feature",
      "id": "supplied-gps-point",
      "properties": {
        "role": "supplied_gps_point",
        "name": "User-supplied GPS point",
        "coordinate_text": "46\u00b053'12.0\"N 111\u00b013'41.7\"W",
        "containing_parcel_id": "47222316101010000"
      },
      "geometry": {
        "type": "Point",
        "coordinates": [
          -111.22825,
          46.8866667
        ]
      }
    }
  ]
}
