{
  "type": "FeatureCollection",
  "name": "verified-section-16-parcel",
  "features": [
    {
      "type": "Feature",
      "properties": {
        "name": "Section 16 Parcel",
        "parcel_id": "47222316101010000",
        "geocode": "47-2223-16-1-01-01-0000",
        "legal_description": "S16, T13 N, R04 E, ALL",
        "tax_record_acres": 641.0,
        "gis_area_acres": 637.87123674,
        "source": "Montana State Library / Montana Department of Revenue Cadastral Framework",
        "boundary_status": "Approximate cadastral/tax-map boundary; not a certified survey or title boundary"
      },
      "geometry": {
        "type": "Polygon",
        "coordinates": [[
          [-111.2376676780079, 46.895715040399566],
          [-111.24293866397876, 46.895700522707166],
          [-111.24293704276369, 46.892084216023612],
          [-111.24293539429102, 46.888467910643179],
          [-111.2429337736899, 46.884851605739129],
          [-111.24293215339475, 46.881235301746258],
          [-111.23765480295502, 46.881252846500679],
          [-111.23237747623212, 46.881270418931457],
          [-111.22710015308385, 46.881287965328241],
          [-111.22182280540019, 46.881305510423374],
          [-111.22183078975355, 46.884918787429605],
          [-111.22183875116612, 46.888532091821148],
          [-111.22184671024576, 46.892145370155546],
          [-111.2218546962625, 46.895758675094889],
          [-111.22712568078462, 46.895744128950248],
          [-111.23239666507463, 46.895729584498262],
          [-111.2376676780079, 46.895715040399566]
        ]]
      }
    }
  ]
}
