{"type":"FeatureCollection","name":"Smith River Ranch public reference hydrography","metadata":{"source":"Montana State Library / USGS National Hydrography Dataset, final December 2023 snapshot","clipped_to":"Record-matched 21,497-acre ranch candidate","line_selection":"Named ranch waters matched in both public hydrography and the ranch marketing record: Smith River, Eagle Creek and Spring Creek","publication_note":"Reference-only geometry; verify against seller, survey and water-right records."},"features":[{"type":"Feature","properties":{"name":"Smith River","kind":"river","flow":"waterbody centerline","gnis_name":"SMITH RIVER","ftype":558,"fcode":55800,"source":"USGS / Montana State Library Hydrography Framework (December 2023 snapshot)","status":"Public reference hydrography; not a survey or water-right determination","geometry_role":"major_named_water"},"geometry":{"type":"LineString","coordinates":[[-111.275646,46.923242],[-111.274964,46.923511],[-111.274819,46.923611],[-111.274689,46.923701]]}},{"type":"Feature","properties":{"name":"Smith River","kind":"river","flow":"waterbody centerline","gnis_name":"SMITH RIVER","ftype":558,"fcode":55800,"source":"USGS / Montana State Library Hydrography Framework (December 2023 snapshot)","status":"Public reference hydrography; not a survey or water-right determination","geometry_role":"major_named_water"},"geometry":{"type":"LineString","coordinates":[[-111.269997,46.878697],[-111.270503,46.879164],[-111.271157,46.879765],[-111.271549,46.880121],[-111.27194,46.880387],[-111.272202,46.880721],[-111.272203,46.880966],[-111.271814,46.881235],[-111.271084,46.881437],[-111.269801,46.881808]]}},{"type":"Feature","properties":{"name":"Smith River","kind":"river","flow":"waterbody centerline","gnis_name":"SMITH RIVER","ftype":558,"fcode":55800,"source":"USGS / Montana State Library Hydrography Framework (December 2023 snapshot)","status":"Public reference hydrography; not a survey or water-right determination","geometry_role":"major_named_water"},"geometry":{"type":"LineString","coordinates":[[-111.2508,46.864542],[-111.251154,46.864532],[-111.251451,46.86441],[-111.251575,46.864322],[-111.251968,46.864131],[-111.25231,46.863882],[-111.252991,46.863161],[-111.253618,46.862593],[-111.254121,46.862274],[-111.254402,46.862087],[-111.254704,46.861934]]}},{"type":"Feature","properties":{"name":"Smith River","kind":"river","flow":"waterbody centerline","gnis_name":"SMITH RIVER","ftype":558,"fcode":55800,"source":"USGS / Montana State Library Hydrography Framework (December 2023 snapshot)","status":"Public reference hydrography; not a survey or water-right determination","geometry_role":"major_named_water"},"geometry":{"type":"LineString","coordinates":[[-111.268396,46.890401],[-111.268926,46.89045],[-111.270454,46.890457],[-111.271902,46.890599],[-111.272798,46.890831],[-111.273401,46.891086],[-111.273532,46.891442],[-111.273568,46.892022],[-111.273459,46.892903],[-111.273479,46.893627],[-111.273695,46.894563],[-111.273971,46.896157],[-111.273959,46.896686],[-111.273958,46.896748],[-111.274178,46.897626],[-111.27419,46.897672],[-111.274391,46.898876],[-111.274257,46.899545],[-111.273449,46.900617],[-111.272365,46.90169],[-111.271701,46.90236],[-111.271476,46.902818],[-111.271364,46.903264],[-111.27155,46.904679],[-111.271781,46.905259],[-111.272501,46.906048],[-111.273088,46.906482],[-111.273175,46.906527],[-111.273822,46.906859]]}},{"type":"Feature","properties":{"name":"Spring Creek","kind":"creek","flow":"perennial","gnis_name":"SPRING CREEK","ftype":460,"fcode":46006,"source":"USGS / Montana State Library Hydrography Framework (December 2023 snapshot)","status":"Public reference hydrography; not a survey or water-right determination","geometry_role":"major_named_water"},"geometry":{"type":"LineString","coordinates":[[-111.163742,46.874203],[-111.164142,46.873789],[-111.164442,46.873415],[-111.164743,46.873041],[-111.165023,46.872806],[-111.165357,46.872599],[-111.165763,46.872409],[-111.166273,46.872098],[-111.16651,46.871864],[-111.166691,46.871612],[-111.16677,46.871445],[-111.166841,46.871305],[-111.167079,46.871094],[-111.167425,46.870792],[-111.167586,46.870562],[-111.167758,46.870287],[-111.167877,46.869859],[-111.168041,46.869477],[-111.168128,46.869189],[-111.16817,46.868959],[-111.168209,46.868829],[-111.16833,46.868711],[-111.168533,46.868567],[-111.168615,46.868491],[-111.168702,46.868328],[-111.168829,46.86818],[-111.168997,46.868058],[-111.169086,46.867927],[-111.16915,46.867815],[-111.169343,46.867702],[-111.169584,46.867616],[-111.169693,46.867521],[-111.169916,46.867382],[-111.17009,46.867305],[-111.170371,46.867196],[-111.170638,46.867034],[-111.170774,46.866926],[-111.170849,46.866885],[-111.170941,46.866894],[-111.171094,46.866916],[-111.171225,46.866907],[-111.171287,46.866835],[-111.171331,46.866705],[-111.171421,46.86652],[-111.171648,46.866353],[-111.171768,46.866222],[-111.171922,46.866033],[-111.172306,46.865754],[-111.172574,46.865524],[-111.173286,46.864605],[-111.173896,46.863893],[-111.174037,46.863654],[-111.174112,46.863366],[-111.174254,46.863024],[-111.174405,46.862745],[-111.174578,46.86251],[-111.174644,46.862339],[-111.174684,46.86206],[-111.174775,46.861898],[-111.175029,46.861709],[-111.175231,46.861524],[-111.175356,46.861299],[-111.175467,46.860871],[-111.175632,46.86048],[-111.175813,46.860259],[-111.176104,46.860006],[-111.176251,46.859822],[-111.176275,46.859705],[-111.176288,46.859489],[-111.176314,46.859403],[-111.17645,46.859272],[-111.176465,46.859236],[-111.176454,46.85916],[-111.176403,46.859061],[-111.176356,46.858957],[-111.176354,46.85889],[-111.17638,46.8588],[-111.176441,46.858719],[-111.1765,46.858678],[-111.176606,46.858615],[-111.176764,46.858561],[-111.176835,46.858543],[-111.176914,46.858498],[-111.176949,46.858466],[-111.176989,46.858363],[-111.177047,46.858264],[-111.177111,46.858155],[-111.177197,46.858079],[-111.177283,46.85802],[-111.177401,46.857957],[-111.17752,46.857907],[-111.177638,46.857862],[-111.177788,46.857803],[-111.177982,46.857722],[-111.178294,46.857609],[-111.178642,46.857501]]}},{"type":"Feature","properties":{"name":"Smith River","kind":"river","flow":"waterbody centerline","gnis_name":"SMITH RIVER","ftype":558,"fcode":55800,"source":"USGS / Montana State Library Hydrography Framework (December 2023 snapshot)","status":"Public reference hydrography; not a survey or water-right determination","geometry_role":"major_named_water"},"geometry":{"type":"LineString","coordinates":[[-111.271117,46.869803],[-111.27136,46.869982],[-111.271461,46.870189],[-111.271483,46.87039],[-111.271323,46.870763],[-111.270802,46.8714],[-111.269911,46.872584],[-111.269045,46.873671],[-111.268929,46.873961],[-111.268856,46.874142],[-111.268637,46.874702],[-111.268587,46.874889],[-111.268582,46.874957]]}},{"type":"Feature","properties":{"name":"Smith River","kind":"river","flow":"waterbody centerline","gnis_name":"SMITH RIVER","ftype":558,"fcode":55800,"source":"USGS / Montana State Library Hydrography Framework (December 2023 snapshot)","status":"Public reference hydrography; not a survey or water-right determination","geometry_role":"major_named_water"},"geometry":{"type":"LineString","coordinates":[[-111.248612,46.864083],[-111.249031,46.864181],[-111.249987,46.86445],[-111.250403,46.864543],[-111.25073,46.864535],[-111.2508,46.864542]]}},{"type":"Feature","properties":{"name":"Smith River","kind":"river","flow":"waterbody centerline","gnis_name":"SMITH RIVER","ftype":558,"fcode":55800,"source":"USGS / Montana State Library Hydrography Framework (December 2023 snapshot)","status":"Public reference hydrography; not a survey or water-right determination","geometry_role":"major_named_water"},"geometry":{"type":"LineString","coordinates":[[-111.278508,46.927505],[-111.278252,46.928431],[-111.278043,46.928955],[-111.277689,46.929602],[-111.27754,46.930773],[-111.277641,46.931408],[-111.277887,46.931831],[-111.2781,46.932132]]}},{"type":"Feature","properties":{"name":"Smith River","kind":"river","flow":"waterbody centerline","gnis_name":"SMITH RIVER","ftype":558,"fcode":55800,"source":"USGS / Montana State Library Hydrography Framework (December 2023 snapshot)","status":"Public reference hydrography; not a survey or water-right determination","geometry_role":"major_named_water"},"geometry":{"type":"LineString","coordinates":[[-111.21772,46.846971],[-111.218767,46.847917],[-111.219505,46.84864],[-111.219706,46.848968],[-111.219819,46.849105]]}},{"type":"Feature","properties":{"name":"Smith River","kind":"river","flow":"waterbody centerline","gnis_name":"SMITH RIVER","ftype":558,"fcode":55800,"source":"USGS / Montana State Library Hydrography Framework (December 2023 snapshot)","status":"Public reference hydrography; not a survey or water-right determination","geometry_role":"major_named_water"},"geometry":{"type":"LineString","coordinates":[[-111.245985,46.861323],[-111.246171,46.861871],[-111.246429,46.86227],[-111.246766,46.862654],[-111.247549,46.863359],[-111.248207,46.863857],[-111.248612,46.864083]]}},{"type":"Feature","properties":{"name":"Smith River","kind":"river","flow":"waterbody centerline","gnis_name":"SMITH RIVER","ftype":558,"fcode":55800,"source":"USGS / Montana State Library Hydrography Framework (December 2023 snapshot)","status":"Public reference hydrography; not a survey or water-right determination","geometry_role":"major_named_water"},"geometry":{"type":"LineString","coordinates":[[-111.265943,46.887425],[-111.266155,46.887752]]}},{"type":"Feature","properties":{"name":"Smith River","kind":"river","flow":"waterbody centerline","gnis_name":"SMITH RIVER","ftype":558,"fcode":55800,"source":"USGS / Montana State Library Hydrography Framework (December 2023 snapshot)","status":"Public reference hydrography; not a survey or water-right determination","geometry_role":"major_named_water"},"geometry":{"type":"LineString","coordinates":[[-111.29476,46.941666],[-111.295511,46.942065],[-111.296248,46.942855],[-111.296249,46.943145],[-111.296137,46.943413],[-111.296122,46.94368],[-111.296156,46.943959],[-111.296353,46.944215],[-111.296419,46.944426],[-111.296462,46.944794]]}},{"type":"Feature","properties":{"name":"Smith River","kind":"river","flow":"waterbody centerline","gnis_name":"SMITH RIVER","ftype":558,"fcode":55800,"source":"USGS / Montana State Library Hydrography Framework (December 2023 snapshot)","status":"Public reference hydrography; not a survey or water-right determination","geometry_role":"major_named_water"},"geometry":{"type":"LineString","coordinates":[[-111.286598,46.938766],[-111.287184,46.939205],[-111.287562,46.939488],[-111.288297,46.939899],[-111.28877,46.940188],[-111.289513,46.940531],[-111.29036,46.940674],[-111.291777,46.94086],[-111.29352,46.941056],[-111.294303,46.941455],[-111.29476,46.941666]]}},{"type":"Feature","properties":{"name":"Eagle Creek","kind":"creek","flow":"perennial","gnis_name":"EAGLE CREEK","ftype":460,"fcode":46006,"source":"USGS / Montana State Library Hydrography Framework (December 2023 snapshot)","status":"Public reference hydrography; not a survey or water-right determination","geometry_role":"major_named_water"},"geometry":{"type":"LineString","coordinates":[[-111.130197,46.841238],[-111.130553,46.841134],[-111.1309,46.84098],[-111.13127,46.840796],[-111.131784,46.840579],[-111.132255,46.840308],[-111.132568,46.840083],[-111.133045,46.83961],[-111.133244,46.83943],[-111.133297,46.839349],[-111.13331,46.83925],[-111.133301,46.838944],[-111.13333,46.838678],[-111.133428,46.838507],[-111.13363,46.838318],[-111.133965,46.83803],[-111.134209,46.837876]]}},{"type":"Feature","properties":{"name":"Smith River","kind":"river","flow":"waterbody centerline","gnis_name":"SMITH RIVER","ftype":558,"fcode":55800,"source":"USGS / Montana State Library Hydrography Framework (December 2023 snapshot)","status":"Public reference hydrography; not a survey or water-right determination","geometry_role":"major_named_water"},"geometry":{"type":"LineString","coordinates":[[-111.27862,46.927148],[-111.278508,46.927505]]}},{"type":"Feature","properties":{"name":"Smith River","kind":"river","flow":"waterbody centerline","gnis_name":"SMITH RIVER","ftype":558,"fcode":55800,"source":"USGS / Montana State Library Hydrography Framework (December 2023 snapshot)","status":"Public reference hydrography; not a survey or water-right determination","geometry_role":"major_named_water"},"geometry":{"type":"LineString","coordinates":[[-111.296462,46.944794],[-111.296221,46.945408],[-111.296106,46.946121],[-111.296079,46.946289],[-111.295934,46.946468],[-111.295642,46.946613],[-111.295489,46.946642],[-111.294975,46.946738],[-111.294421,46.946661],[-111.293948,46.946495],[-111.293655,46.94644],[-111.293103,46.946653],[-111.292014,46.947102],[-111.291269,46.947762],[-111.29067,46.948287],[-111.290345,46.948455],[-111.290158,46.9485],[-111.289898,46.948523]]}},{"type":"Feature","properties":{"name":"Smith River","kind":"river","flow":"waterbody centerline","gnis_name":"SMITH RIVER","ftype":558,"fcode":55800,"source":"USGS / Montana State Library Hydrography Framework (December 2023 snapshot)","status":"Public reference hydrography; not a survey or water-right determination","geometry_role":"major_named_water"},"geometry":{"type":"LineString","coordinates":[[-111.220255,46.85019],[-111.220594,46.851121],[-111.220781,46.851883],[-111.220976,46.852546],[-111.221154,46.853007],[-111.221287,46.853319],[-111.221463,46.853516],[-111.221776,46.853614],[-111.222135,46.853646],[-111.222655,46.853662],[-111.223135,46.853677],[-111.223542,46.853687],[-111.224046,46.853796],[-111.224518,46.853883],[-111.224634,46.85391]]}},{"type":"Feature","properties":{"name":"Smith River","kind":"river","flow":"waterbody centerline","gnis_name":"SMITH RIVER","ftype":558,"fcode":55800,"source":"USGS / Montana State Library Hydrography Framework (December 2023 snapshot)","status":"Public reference hydrography; not a survey or water-right determination","geometry_role":"major_named_water"},"geometry":{"type":"LineString","coordinates":[[-111.269801,46.881808],[-111.268016,46.882403],[-111.26701,46.88284],[-111.266766,46.882952],[-111.265802,46.883635],[-111.265285,46.884249],[-111.265011,46.884751],[-111.264884,46.885287],[-111.264902,46.885721]]}},{"type":"Feature","properties":{"name":"Smith River","kind":"river","flow":"waterbody centerline","gnis_name":"SMITH RIVER","ftype":558,"fcode":55800,"source":"USGS / Montana State Library Hydrography Framework (December 2023 snapshot)","status":"Public reference hydrography; not a survey or water-right determination","geometry_role":"major_named_water"},"geometry":{"type":"LineString","coordinates":[[-111.274689,46.923701],[-111.274581,46.923797],[-111.274462,46.923903],[-111.274382,46.92417],[-111.274448,46.92436],[-111.274582,46.924522],[-111.274677,46.924638],[-111.274908,46.924757],[-111.275428,46.925026],[-111.27687,46.92548],[-111.277783,46.925723],[-111.278322,46.926123],[-111.278633,46.926479],[-111.2787,46.926869],[-111.27862,46.927148]]}},{"type":"Feature","properties":{"name":"Smith River","kind":"river","flow":"waterbody centerline","gnis_name":"SMITH RIVER","ftype":558,"fcode":55800,"source":"USGS / Montana State Library Hydrography Framework (December 2023 snapshot)","status":"Public reference hydrography; not a survey or water-right determination","geometry_role":"major_named_water"},"geometry":{"type":"LineString","coordinates":[[-111.247471,46.855145],[-111.247867,46.855227],[-111.248164,46.855385],[-111.248421,46.855626],[-111.248646,46.855921],[-111.248711,46.856212],[-111.248713,46.856552],[-111.248626,46.856898],[-111.248182,46.857524],[-111.247602,46.858391],[-111.247324,46.858814],[-111.247041,46.85899],[-111.246659,46.859265],[-111.246286,46.85977],[-111.246,46.86027],[-111.245922,46.860736],[-111.245928,46.861087],[-111.245985,46.861323]]}},{"type":"Feature","properties":{"name":"Spring Creek","kind":"creek","flow":"intermittent","gnis_name":"SPRING CREEK","ftype":460,"fcode":46003,"source":"USGS / Montana State Library Hydrography Framework (December 2023 snapshot)","status":"Public reference hydrography; not a survey or water-right determination","geometry_role":"major_named_water"},"geometry":{"type":"LineString","coordinates":[[-111.129371,46.902838],[-111.130092,46.902595],[-111.130525,46.902387],[-111.130997,46.90218],[-111.131522,46.902035],[-111.132454,46.901728],[-111.133595,46.901367],[-111.134198,46.901132],[-111.134526,46.900978],[-111.134841,46.900744],[-111.135247,46.900402],[-111.135417,46.900203],[-111.135679,46.89978],[-111.135861,46.899402],[-111.136018,46.899177],[-111.13628,46.898979],[-111.136792,46.898618],[-111.137368,46.898212],[-111.137427,46.898161],[-111.137814,46.897825],[-111.138338,46.897365],[-111.138835,46.896834],[-111.139031,46.896572],[-111.139149,46.896338],[-111.1392,46.895996],[-111.1392,46.89569],[-111.139278,46.895339],[-111.139447,46.894691],[-111.139668,46.89416],[-111.139904,46.893908],[-111.140022,46.893808],[-111.14014,46.893754],[-111.140245,46.89361],[-111.140479,46.893016],[-111.140584,46.892863],[-111.14099,46.892601],[-111.141383,46.892349],[-111.141973,46.892069],[-111.142249,46.891907],[-111.142366,46.8917],[-111.142366,46.891448],[-111.142405,46.891367],[-111.142575,46.891213],[-111.142667,46.891114],[-111.142706,46.891006],[-111.142915,46.890736],[-111.143216,46.890538],[-111.143439,46.890321],[-111.143452,46.890177]]}},{"type":"Feature","properties":{"name":"Smith River","kind":"river","flow":"waterbody centerline","gnis_name":"SMITH RIVER","ftype":558,"fcode":55800,"source":"USGS / Montana State Library Hydrography Framework (December 2023 snapshot)","status":"Public reference hydrography; not a survey or water-right determination","geometry_role":"major_named_water"},"geometry":{"type":"LineString","coordinates":[[-111.275216,46.917101],[-111.275561,46.917646],[-111.276051,46.918113],[-111.276931,46.918434],[-111.27714,46.918539],[-111.277617,46.918778],[-111.277672,46.918808],[-111.278383,46.919189],[-111.27889,46.919722],[-111.2791,46.919947],[-111.279201,46.920056]]}},{"type":"Feature","properties":{"name":"Smith River","kind":"river","flow":"waterbody centerline","gnis_name":"SMITH RIVER","ftype":558,"fcode":55800,"source":"USGS / Montana State Library Hydrography Framework (December 2023 snapshot)","status":"Public reference hydrography; not a survey or water-right determination","geometry_role":"major_named_water"},"geometry":{"type":"LineString","coordinates":[[-111.208226,46.841675],[-111.207923,46.841944],[-111.207717,46.842252],[-111.207669,46.842384],[-111.207546,46.842565],[-111.207436,46.843108],[-111.207422,46.8437],[-111.207416,46.84421],[-111.207488,46.845125],[-111.207674,46.845706],[-111.20812,46.846336],[-111.208545,46.846769],[-111.208961,46.847014],[-111.209193,46.847053],[-111.209329,46.847047]]}},{"type":"Feature","properties":{"name":"Smith River","kind":"river","flow":"waterbody centerline","gnis_name":"SMITH RIVER","ftype":558,"fcode":55800,"source":"USGS / Montana State Library Hydrography Framework (December 2023 snapshot)","status":"Public reference hydrography; not a survey or water-right determination","geometry_role":"major_named_water"},"geometry":{"type":"LineString","coordinates":[[-111.266155,46.887752],[-111.266698,46.888761],[-111.26732,46.889684],[-111.267729,46.890129],[-111.268055,46.890285],[-111.268396,46.890401]]}},{"type":"Feature","properties":{"name":"Smith River","kind":"river","flow":"waterbody centerline","gnis_name":"SMITH RIVER","ftype":558,"fcode":55800,"source":"USGS / Montana State Library Hydrography Framework (December 2023 snapshot)","status":"Public reference hydrography; not a survey or water-right determination","geometry_role":"major_named_water"},"geometry":{"type":"LineString","coordinates":[[-111.2781,46.932132],[-111.280713,46.933775],[-111.282509,46.934863],[-111.28339,46.935363],[-111.283962,46.935897],[-111.284994,46.937042],[-111.285004,46.937054],[-111.286091,46.938344],[-111.286386,46.938611],[-111.286598,46.938766]]}},{"type":"Feature","properties":{"name":"Spring Creek","kind":"creek","flow":"perennial","gnis_name":"SPRING CREEK","ftype":460,"fcode":46006,"source":"USGS / Montana State Library Hydrography Framework (December 2023 snapshot)","status":"Public reference hydrography; not a survey or water-right determination","geometry_role":"major_named_water"},"geometry":{"type":"LineString","coordinates":[[-111.178642,46.857501],[-111.178917,46.85746],[-111.179251,46.857387],[-111.179493,46.857333],[-111.1797,46.857319],[-111.179977,46.857336],[-111.180246,46.857395],[-111.180448,46.857444],[-111.180568,46.857452],[-111.180723,46.857434],[-111.181009,46.857389],[-111.18136,46.857357],[-111.181577,46.857374],[-111.181753,46.857406],[-111.181947,46.857464],[-111.182083,46.857473],[-111.182319,46.857472],[-111.182518,46.85758],[-111.182617,46.857683],[-111.182725,46.857813],[-111.182847,46.857872],[-111.183055,46.85788],[-111.183323,46.857862],[-111.183572,46.857799],[-111.183849,46.857699],[-111.18402,46.857663],[-111.184156,46.857663],[-111.184377,46.857725],[-111.184611,46.857783],[-111.184791,46.857792],[-111.184906,46.857769],[-111.185049,46.857733],[-111.185292,46.857719],[-111.185465,46.857714],[-111.185686,46.857629],[-111.185792,46.857597],[-111.185936,46.857597],[-111.186242,46.85765],[-111.18652,46.857731],[-111.186636,46.85774],[-111.186808,46.857735],[-111.187031,46.857703],[-111.187274,46.857667],[-111.187498,46.85768],[-111.18774,46.857747],[-111.187849,46.857796],[-111.188006,46.857809],[-111.188133,46.857809],[-111.188426,46.857822],[-111.188842,46.857835],[-111.189212,46.857771],[-111.189414,46.85773],[-111.189681,46.857685],[-111.18982,46.857676],[-111.189928,46.857685],[-111.190069,46.857707],[-111.190415,46.857787],[-111.190685,46.857841],[-111.190981,46.857863],[-111.191511,46.857938],[-111.191736,46.857952],[-111.191986,46.857897],[-111.192407,46.857815],[-111.192534,46.857797],[-111.192802,46.857774],[-111.192998,46.857783],[-111.193178,46.857801],[-111.193371,46.857832],[-111.193657,46.857917],[-111.193868,46.858006],[-111.193981,46.858029],[-111.194092,46.858024],[-111.194327,46.858006],[-111.194671,46.858],[-111.194856,46.858027],[-111.195142,46.858103],[-111.195343,46.858143],[-111.195559,46.858152],[-111.196174,46.858142],[-111.196527,46.858168],[-111.196719,46.858168],[-111.197081,46.858118],[-111.19734,46.858081],[-111.197592,46.858099],[-111.19787,46.858139],[-111.198153,46.858143],[-111.19838,46.858116],[-111.198713,46.85802],[-111.198995,46.857948],[-111.199288,46.85788],[-111.199811,46.857735],[-111.200201,46.857676],[-111.200544,46.857639],[-111.200723,46.857625],[-111.200877,46.85754]]}},{"type":"Feature","properties":{"name":"Smith River","kind":"river","flow":"waterbody centerline","gnis_name":"SMITH RIVER","ftype":558,"fcode":55800,"source":"USGS / Montana State Library Hydrography Framework (December 2023 snapshot)","status":"Public reference hydrography; not a survey or water-right determination","geometry_role":"major_named_water"},"geometry":{"type":"LineString","coordinates":[[-111.273822,46.906859],[-111.275125,46.907112],[-111.27628,46.907243],[-111.277159,46.907397],[-111.277994,46.907642],[-111.278023,46.907651],[-111.278935,46.907928],[-111.279328,46.908063],[-111.279897,46.90826]]}},{"type":"Feature","properties":{"name":"Smith River","kind":"river","flow":"waterbody centerline","gnis_name":"SMITH RIVER","ftype":558,"fcode":55800,"source":"USGS / Montana State Library Hydrography Framework (December 2023 snapshot)","status":"Public reference hydrography; not a survey or water-right determination","geometry_role":"major_named_water"},"geometry":{"type":"LineString","coordinates":[[-111.209329,46.847047],[-111.209705,46.846947],[-111.209984,46.846782],[-111.210406,46.846579],[-111.210749,46.846419],[-111.211308,46.846253],[-111.212346,46.846038],[-111.213724,46.845728],[-111.214594,46.845589],[-111.215098,46.845616],[-111.215482,46.845725],[-111.215986,46.845888],[-111.216346,46.846047],[-111.217175,46.846533],[-111.217584,46.846834],[-111.21772,46.846971]]}},{"type":"Feature","properties":{"name":"Smith River","kind":"river","flow":"waterbody centerline","gnis_name":"SMITH RIVER","ftype":558,"fcode":55800,"source":"USGS / Montana State Library Hydrography Framework (December 2023 snapshot)","status":"Public reference hydrography; not a survey or water-right determination","geometry_role":"major_named_water"},"geometry":{"type":"LineString","coordinates":[[-111.268582,46.874957],[-111.268531,46.875172],[-111.268262,46.876305],[-111.268329,46.876717],[-111.269016,46.877596],[-111.269719,46.878308],[-111.269997,46.878697]]}},{"type":"Feature","properties":{"name":"Spring Creek","kind":"creek","flow":"perennial","gnis_name":"SPRING CREEK","ftype":460,"fcode":46006,"source":"USGS / Montana State Library Hydrography Framework (December 2023 snapshot)","status":"Public reference hydrography; not a survey or water-right determination","geometry_role":"major_named_water"},"geometry":{"type":"LineString","coordinates":[[-111.203943,46.856769],[-111.204207,46.856665],[-111.204662,46.856493],[-111.205107,46.856272],[-111.205439,46.856141],[-111.205609,46.856087],[-111.20588,46.855929],[-111.206024,46.85583],[-111.206175,46.855676],[-111.206381,46.855325],[-111.206557,46.855095],[-111.206773,46.854843],[-111.206975,46.854635],[-111.207169,46.85446],[-111.207242,46.854365],[-111.207317,46.854198],[-111.207497,46.85396],[-111.207708,46.85368],[-111.20799,46.853351],[-111.208378,46.852981],[-111.20868,46.85267],[-111.208906,46.852477],[-111.208998,46.852355],[-111.209088,46.852148],[-111.209186,46.851977],[-111.209418,46.851733],[-111.209739,46.851364],[-111.209827,46.851242],[-111.209859,46.851111],[-111.209866,46.850837],[-111.209814,46.850464],[-111.209731,46.85009],[-111.209681,46.849883],[-111.209535,46.84956],[-111.209484,46.849326],[-111.209438,46.84902],[-111.209365,46.84835],[-111.209289,46.847189]]}},{"type":"Feature","properties":{"name":"Eagle Creek","kind":"creek","flow":"perennial","gnis_name":"EAGLE CREEK","ftype":460,"fcode":46006,"source":"USGS / Montana State Library Hydrography Framework (December 2023 snapshot)","status":"Public reference hydrography; not a survey or water-right determination","geometry_role":"major_named_water"},"geometry":{"type":"LineString","coordinates":[[-111.134209,46.837876],[-111.134559,46.837822],[-111.135114,46.837803],[-111.135522,46.837821],[-111.135843,46.837883],[-111.136141,46.837959],[-111.136467,46.838049],[-111.136955,46.83817],[-111.137111,46.838197],[-111.137559,46.838201],[-111.138661,46.83819],[-111.138886,46.838213],[-111.139094,46.838226],[-111.139242,46.838217],[-111.13938,46.838158],[-111.139814,46.837838],[-111.140103,46.837617],[-111.14043,46.837455],[-111.140763,46.837378],[-111.141089,46.837319],[-111.141432,46.837305],[-111.142076,46.837309],[-111.142588,46.83734]]}},{"type":"Feature","properties":{"name":"Smith River","kind":"river","flow":"waterbody centerline","gnis_name":"SMITH RIVER","ftype":558,"fcode":55800,"source":"USGS / Montana State Library Hydrography Framework (December 2023 snapshot)","status":"Public reference hydrography; not a survey or water-right determination","geometry_role":"major_named_water"},"geometry":{"type":"LineString","coordinates":[[-111.264902,46.885721],[-111.265943,46.887425]]}},{"type":"Feature","properties":{"name":"Smith River","kind":"river","flow":"waterbody centerline","gnis_name":"SMITH RIVER","ftype":558,"fcode":55800,"source":"USGS / Montana State Library Hydrography Framework (December 2023 snapshot)","status":"Public reference hydrography; not a survey or water-right determination","geometry_role":"major_named_water"},"geometry":{"type":"LineString","coordinates":[[-111.279897,46.90826],[-111.280149,46.908341],[-111.281176,46.908669],[-111.28186,46.908958],[-111.282024,46.909158],[-111.282206,46.909625],[-111.282143,46.910116],[-111.281724,46.91092],[-111.281078,46.911668],[-111.280445,46.912027],[-111.279471,46.912408],[-111.277959,46.912657],[-111.276862,46.912894],[-111.275888,46.913186],[-111.275612,46.913343],[-111.27532,46.913555]]}},{"type":"Feature","properties":{"name":"Smith River","kind":"river","flow":"waterbody centerline","gnis_name":"SMITH RIVER","ftype":558,"fcode":55800,"source":"USGS / Montana State Library Hydrography Framework (December 2023 snapshot)","status":"Public reference hydrography; not a survey or water-right determination","geometry_role":"major_named_water"},"geometry":{"type":"LineString","coordinates":[[-111.279201,46.920056],[-111.279424,46.92068],[-111.2794,46.920966],[-111.279394,46.921037],[-111.279361,46.921111],[-111.279262,46.921335],[-111.279217,46.921438],[-111.279163,46.92149],[-111.278699,46.92193],[-111.277871,46.922423],[-111.27706,46.922782],[-111.275874,46.923141],[-111.275646,46.923242]]}},{"type":"Feature","properties":{"name":"Smith River","kind":"river","flow":"waterbody centerline","gnis_name":"SMITH RIVER","ftype":558,"fcode":55800,"source":"USGS / Montana State Library Hydrography Framework (December 2023 snapshot)","status":"Public reference hydrography; not a survey or water-right determination","geometry_role":"major_named_water"},"geometry":{"type":"LineString","coordinates":[[-111.219819,46.849105],[-111.220021,46.849598],[-111.220255,46.85019]]}},{"type":"Feature","properties":{"name":"Smith River","kind":"river","flow":"waterbody centerline","gnis_name":"SMITH RIVER","ftype":558,"fcode":55800,"source":"USGS / Montana State Library Hydrography Framework (December 2023 snapshot)","status":"Public reference hydrography; not a survey or water-right determination","geometry_role":"major_named_water"},"geometry":{"type":"LineString","coordinates":[[-111.27532,46.913555],[-111.274762,46.914114],[-111.274568,46.914507],[-111.274536,46.914572],[-111.274508,46.91533],[-111.274569,46.915672],[-111.274642,46.916076],[-111.275036,46.916789],[-111.275216,46.917101]]}},{"type":"Feature","properties":{"name":"Spring Creek","kind":"creek","flow":"perennial","gnis_name":"SPRING CREEK","ftype":460,"fcode":46006,"source":"USGS / Montana State Library Hydrography Framework (December 2023 snapshot)","status":"Public reference hydrography; not a survey or water-right determination","geometry_role":"major_named_water"},"geometry":{"type":"LineString","coordinates":[[-111.148408,46.888182],[-111.14846,46.887957],[-111.148565,46.887804],[-111.148682,46.88757],[-111.148944,46.887291]]}},{"type":"Feature","properties":{"name":"Spring Creek","kind":"creek","flow":"waterbody centerline","gnis_name":"SPRING CREEK","ftype":558,"fcode":55800,"source":"USGS / Montana State Library Hydrography Framework (December 2023 snapshot)","status":"Public reference hydrography; not a survey or water-right determination","geometry_role":"major_named_water"},"geometry":{"type":"LineString","coordinates":[[-111.209289,46.847189],[-111.209329,46.847047]]}},{"type":"Feature","properties":{"name":"Spring Creek","kind":"creek","flow":"perennial","gnis_name":"SPRING CREEK","ftype":460,"fcode":46006,"source":"USGS / Montana State Library Hydrography Framework (December 2023 snapshot)","status":"Public reference hydrography; not a survey or water-right determination","geometry_role":"major_named_water"},"geometry":{"type":"LineString","coordinates":[[-111.154471,46.878401],[-111.154903,46.878157],[-111.155348,46.877896],[-111.155807,46.877706],[-111.156384,46.877525],[-111.15704,46.877299],[-111.157774,46.877055],[-111.158443,46.876911],[-111.159098,46.876703],[-111.159741,46.876414],[-111.160304,46.876125],[-111.160985,46.875737],[-111.161379,46.875584],[-111.161759,46.875457],[-111.162414,46.875231],[-111.162848,46.87496],[-111.16299,46.874843],[-111.163341,46.874555],[-111.163742,46.874203]]}},{"type":"Feature","properties":{"name":"Spring Creek","kind":"creek","flow":"intermittent","gnis_name":"SPRING CREEK","ftype":460,"fcode":46003,"source":"USGS / Montana State Library Hydrography Framework (December 2023 snapshot)","status":"Public reference hydrography; not a survey or water-right determination","geometry_role":"major_named_water"},"geometry":{"type":"LineString","coordinates":[[-111.143452,46.890177],[-111.143687,46.889862],[-111.14387,46.889673],[-111.144172,46.889511],[-111.144408,46.88942],[-111.144788,46.889159],[-111.14526,46.888978],[-111.14568,46.888861],[-111.14627,46.888662],[-111.146598,46.888527],[-111.147254,46.888418],[-111.147844,46.888354],[-111.148198,46.888281],[-111.148408,46.888182]]}},{"type":"Feature","properties":{"name":"Spring Creek","kind":"creek","flow":"waterbody centerline","gnis_name":"SPRING CREEK","ftype":558,"fcode":55800,"source":"USGS / Montana State Library Hydrography Framework (December 2023 snapshot)","status":"Public reference hydrography; not a survey or water-right determination","geometry_role":"major_named_water"},"geometry":{"type":"LineString","coordinates":[[-111.153278,46.878925],[-111.154004,46.878671],[-111.154471,46.878401]]}},{"type":"Feature","properties":{"name":"Spring Creek","kind":"creek","flow":"perennial","gnis_name":"SPRING CREEK","ftype":460,"fcode":46006,"source":"USGS / Montana State Library Hydrography Framework (December 2023 snapshot)","status":"Public reference hydrography; not a survey or water-right determination","geometry_role":"major_named_water"},"geometry":{"type":"LineString","coordinates":[[-111.148944,46.887291],[-111.149074,46.887038],[-111.149192,46.886696],[-111.149269,46.886363],[-111.149307,46.885922],[-111.14941,46.885121],[-111.14933,46.884401],[-111.14925,46.884005],[-111.149144,46.883619],[-111.148999,46.883349],[-111.148946,46.88316],[-111.148971,46.883016],[-111.149102,46.88289],[-111.14943,46.882718],[-111.149574,46.882592],[-111.149639,46.882457],[-111.149704,46.882142],[-111.149808,46.881818],[-111.149952,46.881512],[-111.150008,46.881433],[-111.1502,46.88116],[-111.150632,46.88062],[-111.150893,46.880314],[-111.15147,46.879899],[-111.152111,46.879466],[-111.152478,46.879268],[-111.152688,46.879132],[-111.152858,46.879042],[-111.153278,46.878925]]}},{"type":"Feature","properties":{"name":"Smith River","kind":"river","flow":"waterbody centerline","gnis_name":"SMITH RIVER","ftype":558,"fcode":55800,"source":"USGS / Montana State Library Hydrography Framework (December 2023 snapshot)","status":"Public reference hydrography; not a survey or water-right determination","geometry_role":"major_named_water"},"geometry":{"type":"LineString","coordinates":[[-111.224634,46.85391],[-111.226178,46.854252],[-111.227914,46.854611],[-111.22869,46.854746],[-111.229718,46.854892],[-111.230086,46.85505],[-111.230383,46.855269],[-111.230704,46.855581],[-111.231547,46.856407],[-111.231763,46.85656],[-111.232196,46.856773],[-111.23264,46.856893],[-111.233192,46.856996],[-111.233664,46.857083],[-111.234592,46.857289],[-111.235176,46.85748],[-111.235704,46.857583],[-111.236112,46.857643],[-111.236376,46.857631],[-111.237426,46.857497],[-111.238129,46.85737],[-111.238489,46.857374],[-111.238785,46.857363],[-111.239248,46.857208],[-111.24031,46.857031],[-111.242103,46.856687],[-111.243492,46.856229],[-111.244258,46.855904],[-111.246089,46.855225],[-111.246576,46.855142],[-111.246984,46.855119],[-111.247471,46.855145]]}},{"type":"Feature","properties":{"name":"Smith River","kind":"river","flow":"waterbody centerline","gnis_name":"SMITH RIVER","ftype":558,"fcode":55800,"source":"USGS / Montana State Library Hydrography Framework (December 2023 snapshot)","status":"Public reference hydrography; not a survey or water-right determination","geometry_role":"major_named_water"},"geometry":{"type":"LineString","coordinates":[[-111.20328,46.83341],[-111.203393,46.833684],[-111.203522,46.833875],[-111.20369,46.833974],[-111.204465,46.83417],[-111.205253,46.834371],[-111.206589,46.834659],[-111.207429,46.83497],[-111.207966,46.835299],[-111.208246,46.835567],[-111.208439,46.835824],[-111.208584,46.836142],[-111.20905,46.837808],[-111.209211,46.838274],[-111.209323,46.839217],[-111.209261,46.839831],[-111.209191,46.840286],[-111.209102,46.840955],[-111.208999,46.84118],[-111.208832,46.841329],[-111.208537,46.841488],[-111.208226,46.841675]]}},{"type":"Feature","properties":{"name":"Smith River","kind":"river","flow":"waterbody centerline","gnis_name":"SMITH RIVER","ftype":558,"fcode":55800,"source":"USGS / Montana State Library Hydrography Framework (December 2023 snapshot)","status":"Public reference hydrography; not a survey or water-right determination","geometry_role":"major_named_water"},"geometry":{"type":"LineString","coordinates":[[-111.254704,46.861934],[-111.255579,46.861642],[-111.256263,46.861468],[-111.256595,46.861308],[-111.257198,46.861044],[-111.257691,46.860843],[-111.258124,46.860669],[-111.258536,46.860592],[-111.258889,46.860598],[-111.259665,46.8607],[-111.260705,46.861008],[-111.261548,46.861525],[-111.262226,46.862],[-111.262621,46.862462],[-111.262865,46.862856],[-111.263068,46.863249],[-111.263111,46.863733],[-111.263042,46.864106],[-111.262712,46.864598],[-111.261895,46.865443],[-111.261452,46.865644],[-111.260054,46.866028],[-111.259037,46.866376],[-111.258455,46.866695],[-111.258411,46.866728],[-111.258143,46.86693],[-111.257973,46.86718],[-111.257678,46.867623],[-111.257589,46.868031],[-111.257601,46.868397],[-111.257825,46.868763],[-111.258078,46.869059],[-111.258593,46.869369],[-111.2593,46.869679],[-111.259724,46.869857],[-111.261445,46.870413],[-111.262111,46.870439],[-111.263128,46.870292],[-111.263984,46.870133],[-111.264336,46.870068],[-111.266184,46.869739],[-111.267221,46.869646],[-111.268219,46.869616],[-111.269529,46.869641],[-111.270814,46.869728],[-111.271005,46.869775],[-111.271117,46.869803]]}},{"type":"Feature","properties":{"name":"Smith River","kind":"river","flow":"waterbody centerline","gnis_name":"SMITH RIVER","ftype":558,"fcode":55800,"source":"USGS / Montana State Library Hydrography Framework (December 2023 snapshot)","status":"Public reference hydrography; not a survey or water-right determination","geometry_role":"major_named_water"},"geometry":{"type":"LineString","coordinates":[[-111.289898,46.948523],[-111.287798,46.948673],[-111.284478,46.948738],[-111.283958,46.948917],[-111.283405,46.948997],[-111.282835,46.94902],[-111.282201,46.949212],[-111.281665,46.949302],[-111.280819,46.949382],[-111.279944,46.949401],[-111.279671,46.949407],[-111.278809,46.949521],[-111.278305,46.949656],[-111.278078,46.949779],[-111.277883,46.950014],[-111.277836,46.950292],[-111.277821,46.950538],[-111.277985,46.950738],[-111.278622,46.951149],[-111.279957,46.951964],[-111.280696,46.952415],[-111.28246,46.953514],[-111.282756,46.953632],[-111.284328,46.954256],[-111.285453,46.954487],[-111.287147,46.954662],[-111.288384,46.954681],[-111.28954,46.954622],[-111.290841,46.954407],[-111.293193,46.954345],[-111.294023,46.95422],[-111.294935,46.954218],[-111.29583,46.954316],[-111.296808,46.954481],[-111.297314,46.954591],[-111.297802,46.954668],[-111.29808,46.954756],[-111.298276,46.954956],[-111.298523,46.955457],[-111.298788,46.956215],[-111.29897,46.956705],[-111.298973,46.957251],[-111.299155,46.957752],[-111.299078,46.958588],[-111.298844,46.958934],[-111.298308,46.959281],[-111.297757,46.959773],[-111.297613,46.960119],[-111.297598,46.960331],[-111.297714,46.96071],[-111.297779,46.960821]]}},{"type":"Feature","properties":{"name":"Spring Creek","kind":"creek","flow":"perennial","gnis_name":"SPRING CREEK","ftype":460,"fcode":46006,"source":"USGS / Montana State Library Hydrography Framework (December 2023 snapshot)","status":"Public reference hydrography; not a survey or water-right determination","geometry_role":"major_named_water"},"geometry":{"type":"LineString","coordinates":[[-111.200877,46.85754],[-111.201031,46.857346],[-111.201331,46.857111],[-111.201645,46.856922],[-111.201929,46.856795],[-111.202143,46.856732],[-111.202275,46.856723],[-111.202575,46.856731],[-111.202888,46.856789],[-111.203277,46.856815],[-111.203593,46.85681],[-111.203943,46.856769]]}},{"type":"Feature","properties":{"name":"","kind":"pond","flow":"","gnis_name":null,"ftype":390,"fcode":39001,"source":"USGS / Montana State Library Hydrography Framework (December 2023 snapshot)","status":"Public reference hydrography; not a survey or water-right determination"},"geometry":{"type":"Polygon","coordinates":[[[-111.250277,46.944103],[-111.250013,46.943816],[-111.24983,46.943915],[-111.249712,46.94406],[-111.249542,46.94415],[-111.249371,46.94415],[-111.249122,46.94425],[-111.248978,46.94443],[-111.248781,46.944485],[-111.248637,46.944521],[-111.248427,46.944566],[-111.248388,46.94471],[-111.248743,46.944719],[-111.248862,46.944808],[-111.249072,46.944898],[-111.249677,46.944897],[-111.250189,46.944796],[-111.25053,46.944697],[-111.250661,46.944615],[-111.250277,46.944103]]]}},{"type":"Feature","properties":{"name":"","kind":"pond","flow":"","gnis_name":null,"ftype":390,"fcode":39001,"source":"USGS / Montana State Library Hydrography Framework (December 2023 snapshot)","status":"Public reference hydrography; not a survey or water-right determination"},"geometry":{"type":"Polygon","coordinates":[[[-111.305614,46.924138],[-111.305636,46.924152],[-111.305777,46.924174],[-111.306004,46.924156],[-111.306139,46.924088],[-111.306153,46.924043],[-111.306051,46.923998],[-111.305868,46.9239],[-111.305612,46.923783],[-111.305522,46.923743],[-111.305459,46.923766],[-111.30541,46.923847],[-111.30545,46.923977],[-111.305538,46.924089],[-111.305614,46.924138]]]}},{"type":"Feature","properties":{"name":"","kind":"pond","flow":"","gnis_name":null,"ftype":390,"fcode":39001,"source":"USGS / Montana State Library Hydrography Framework (December 2023 snapshot)","status":"Public reference hydrography; not a survey or water-right determination"},"geometry":{"type":"Polygon","coordinates":[[[-111.30922,46.927703],[-111.309228,46.927738],[-111.309318,46.927782],[-111.309428,46.927836],[-111.309574,46.927903],[-111.309662,46.927876],[-111.309651,46.927799],[-111.309652,46.927736],[-111.309636,46.927592],[-111.309605,46.927507],[-111.309572,46.927489],[-111.309468,46.927494],[-111.30935,46.927553],[-111.309214,46.927675],[-111.30922,46.927703]]]}},{"type":"Feature","properties":{"name":"","kind":"pond","flow":"","gnis_name":null,"ftype":390,"fcode":39004,"source":"USGS / Montana State Library Hydrography Framework (December 2023 snapshot)","status":"Public reference hydrography; not a survey or water-right determination"},"geometry":{"type":"Polygon","coordinates":[[[-111.216944,46.87603],[-111.216943,46.875922],[-111.216851,46.875752],[-111.216745,46.875671],[-111.216667,46.875671],[-111.216483,46.875779],[-111.216339,46.875897],[-111.216353,46.875978],[-111.216419,46.876031],[-111.216537,46.876022],[-111.216629,46.875995],[-111.216773,46.876013],[-111.216891,46.876039],[-111.216944,46.87603]]]}},{"type":"Feature","properties":{"name":"","kind":"pond","flow":"","gnis_name":null,"ftype":390,"fcode":39001,"source":"USGS / Montana State Library Hydrography Framework (December 2023 snapshot)","status":"Public reference hydrography; not a survey or water-right determination"},"geometry":{"type":"Polygon","coordinates":[[[-111.322259,46.925461],[-111.322365,46.925519],[-111.322499,46.92559],[-111.322691,46.925585],[-111.322766,46.925554],[-111.322741,46.925495],[-111.32271,46.925432],[-111.32271,46.925329],[-111.322684,46.925257],[-111.322648,46.925239],[-111.322557,46.92528],[-111.322372,46.925375],[-111.322259,46.925461]]]}},{"type":"Feature","properties":{"name":"","kind":"pond","flow":"","gnis_name":null,"ftype":390,"fcode":39009,"source":"USGS / Montana State Library Hydrography Framework (December 2023 snapshot)","status":"Public reference hydrography; not a survey or water-right determination"},"geometry":{"type":"Polygon","coordinates":[[[-111.179009,46.844558],[-111.17889,46.844648],[-111.178628,46.844843],[-111.178724,46.844974],[-111.178771,46.845224],[-111.178938,46.845248],[-111.179247,46.845652],[-111.179342,46.845676],[-111.179057,46.845224],[-111.179283,46.845058],[-111.179687,46.845153],[-111.179771,46.845129],[-111.179378,46.844915],[-111.17914,46.844736],[-111.179009,46.844558]]]}},{"type":"Feature","properties":{"name":"","kind":"pond","flow":"","gnis_name":null,"ftype":390,"fcode":39009,"source":"USGS / Montana State Library Hydrography Framework (December 2023 snapshot)","status":"Public reference hydrography; not a survey or water-right determination"},"geometry":{"type":"Polygon","coordinates":[[[-111.172394,46.846473],[-111.172082,46.846542],[-111.172014,46.846557],[-111.172002,46.846699],[-111.172168,46.846878],[-111.17224,46.847068],[-111.172225,46.847328],[-111.172144,46.847604],[-111.172406,46.84733],[-111.172537,46.847259],[-111.17293,46.84733],[-111.172525,46.847021],[-111.172513,46.846699],[-111.172489,46.846569],[-111.172394,46.846473]]]}},{"type":"Feature","properties":{"name":"","kind":"pond","flow":"","gnis_name":null,"ftype":390,"fcode":39001,"source":"USGS / Montana State Library Hydrography Framework (December 2023 snapshot)","status":"Public reference hydrography; not a survey or water-right determination"},"geometry":{"type":"Polygon","coordinates":[[[-111.306812,46.923892],[-111.306621,46.923902],[-111.306538,46.923943],[-111.306548,46.923992],[-111.306613,46.924019],[-111.306757,46.924023],[-111.306885,46.924014],[-111.307036,46.923995],[-111.307107,46.923968],[-111.307114,46.923923],[-111.307069,46.923896],[-111.306981,46.923887],[-111.306812,46.923892]]]}},{"type":"Feature","properties":{"name":"","kind":"pond","flow":"","gnis_name":null,"ftype":390,"fcode":39004,"source":"USGS / Montana State Library Hydrography Framework (December 2023 snapshot)","status":"Public reference hydrography; not a survey or water-right determination"},"geometry":{"type":"Polygon","coordinates":[[[-111.154471,46.878401],[-111.154221,46.878203],[-111.154024,46.878213],[-111.153709,46.878357],[-111.1535,46.878537],[-111.15333,46.878663],[-111.153291,46.878781],[-111.153278,46.878925],[-111.153436,46.879032],[-111.153606,46.879059],[-111.153908,46.87905],[-111.154302,46.878995],[-111.154551,46.878905],[-111.154734,46.878769],[-111.154747,46.878661],[-111.154629,46.878572],[-111.154471,46.878401]]]}},{"type":"Feature","properties":{"name":"","kind":"pond","flow":"","gnis_name":null,"ftype":390,"fcode":39001,"source":"USGS / Montana State Library Hydrography Framework (December 2023 snapshot)","status":"Public reference hydrography; not a survey or water-right determination"},"geometry":{"type":"Polygon","coordinates":[[[-111.314558,46.877562],[-111.314607,46.877579],[-111.314712,46.877602],[-111.31488,46.877615],[-111.314963,46.877587],[-111.315093,46.877538],[-111.315128,46.877492],[-111.315142,46.877434],[-111.31508,46.877371],[-111.314999,46.877349],[-111.314871,46.877363],[-111.314677,46.877413],[-111.314583,46.877458],[-111.314544,46.877499],[-111.314558,46.877562]]]}},{"type":"Feature","properties":{"name":"","kind":"pond","flow":"","gnis_name":null,"ftype":390,"fcode":39001,"source":"USGS / Montana State Library Hydrography Framework (December 2023 snapshot)","status":"Public reference hydrography; not a survey or water-right determination"},"geometry":{"type":"Polygon","coordinates":[[[-111.233047,46.888408],[-111.233048,46.888534],[-111.23314,46.888678],[-111.233364,46.888813],[-111.233627,46.88892],[-111.233942,46.889036],[-111.234113,46.889063],[-111.234336,46.889018],[-111.234545,46.888837],[-111.234558,46.88872],[-111.234479,46.888621],[-111.234111,46.888487],[-111.233598,46.888425],[-111.233231,46.888381],[-111.233047,46.888408]]]}},{"type":"Feature","properties":{"name":"","kind":"spring","flow":"","gnis_name":null,"ftype":458,"fcode":45800,"source":"USGS / Montana State Library Hydrography Framework (December 2023 snapshot)","status":"Public reference hydrography; not a survey or water-right determination"},"geometry":{"type":"Point","coordinates":[-111.175294,46.881016]}},{"type":"Feature","properties":{"name":"","kind":"spring","flow":"","gnis_name":null,"ftype":458,"fcode":45800,"source":"USGS / Montana State Library Hydrography Framework (December 2023 snapshot)","status":"Public reference hydrography; not a survey or water-right determination"},"geometry":{"type":"Point","coordinates":[-111.231702,46.906216]}},{"type":"Feature","properties":{"name":"","kind":"spring","flow":"","gnis_name":null,"ftype":458,"fcode":45800,"source":"USGS / Montana State Library Hydrography Framework (December 2023 snapshot)","status":"Public reference hydrography; not a survey or water-right determination"},"geometry":{"type":"Point","coordinates":[-111.320582,46.940377]}}]}
